{"type":"FeatureCollection","crs":{"type":"name","properties":{"name":"EPSG:4326"}},"features":[{"type":"Feature","geometry":{"type":"Polygon","coordinates":[[[-68.0572805197609,44.7614700418339],[-68.0698294792337,44.7595834412419],[-68.0800534539758,44.7580053371176],[-68.0905700241528,44.7564151413079],[-68.1087033865825,44.7537088794657],[-68.1198641046796,44.7520264863267],[-68.1244567281599,44.7513236026509],[-68.1244564983502,44.7513911173248],[-68.13271857288,44.7500813085773],[-68.1331291001718,44.750084425567],[-68.1331469764813,44.750084561262],[-68.1435802831418,44.7485023535118],[-68.1581903392696,44.7463063898778],[-68.1810137655683,44.7428894248723],[-68.1826705135172,44.7500851467544],[-68.1862741715088,44.7648206432304],[-68.1875302282601,44.7700374107935],[-68.188585148542,44.7742894855387],[-68.1897561827513,44.7792310477041],[-68.1913595167951,44.7857600498942],[-68.1929559501463,44.7924690220936],[-68.194413248286,44.7990374454544],[-68.1996426134828,44.821926352857],[-68.202251727506,44.8335394364844],[-68.1244593017281,44.8442132318723],[-68.1143406470521,44.8456385659815],[-68.1047858752239,44.8469819050822],[-68.1026684012014,44.8472533545039],[-68.0823343237362,44.8499049412085],[-68.082102477738,44.8492144118433],[-68.0803727795433,44.8428494687483],[-68.0774319809935,44.8322751976811],[-68.0728177127425,44.8158403213074],[-68.0701329704559,44.8065642128795],[-68.0637036921433,44.7838845479226],[-68.0605683113853,44.7730065611673],[-68.0581503600551,44.7644614825535],[-68.0572805197609,44.7614700418339]]]},"properties":{"TOWN":"T22 MD BPP","COUNTY":"Hancock","GEOCODE":"09808","CNTYCODE":"09"}}]}