{"type":"FeatureCollection","bbox":[-75.788635253906,38.450988769531,-75.048889160156,39.838989257812],"features":[{"type":"Feature","bbox":[-75.788330078125,39.289978027344,-75.4052734375,39.838500976562],"geometry":{"type":"Polygon","coordinates":[[[-75.512634277344,39.365844726562],[-75.534912109375,39.350799560547],[-75.552368164062,39.353729248047],[-75.551330566406,39.345489501953],[-75.557434082031,39.348815917969],[-75.560607910156,39.345153808594],[-75.556213378906,39.33544921875],[-75.569213867188,39.328735351562],[-75.574645996094,39.313232421875],[-75.593994140625,39.308471679688],[-75.621459960938,39.308868408203],[-75.64208984375,39.300842285156],[-75.651123046875,39.291717529297],[-75.667236328125,39.289978027344],[-75.685424804688,39.297180175781],[-75.714782714844,39.299346923828],[-75.760070800781,39.296569824219],[-75.787414550781,39.637451171875],[-75.788330078125,39.721801757812],[-75.773498535156,39.722412109375],[-75.753051757812,39.757629394531],[-75.716918945312,39.791961669922],[-75.685974121094,39.81103515625],[-75.641479492188,39.828338623047],[-75.579833984375,39.838500976562],[-75.518432617188,39.836303710938],[-75.463317871094,39.823791503906],[-75.4052734375,39.796173095703],[-75.437927246094,39.783386230469],[-75.459411621094,39.765808105469],[-75.47412109375,39.735473632812],[-75.477600097656,39.714996337891],[-75.488525390625,39.714813232422],[-75.496215820312,39.701416015625],[-75.509033203125,39.694488525391],[-75.509704589844,39.686096191406],[-75.529724121094,39.692596435547],[-75.562194824219,39.656707763672],[-75.587097167969,39.651000976562],[-75.614868164062,39.615936279297],[-75.61181640625,39.597381591797],[-75.604614257812,39.589904785156],[-75.56298828125,39.562225341797],[-75.5703125,39.527191162109],[-75.560668945312,39.520446777344],[-75.56689453125,39.508239746094],[-75.576416015625,39.509185791016],[-75.587707519531,39.496337890625],[-75.593017578125,39.479156494141],[-75.589416503906,39.460815429688],[-75.570922851562,39.442474365234],[-75.57177734375,39.438873291016],[-75.538452148438,39.416473388672],[-75.512634277344,39.365844726562]]]},"properties":{"_isDeleted":false,"AREA":"1.21113082927645E-01","PERIMETER":"1.82812869476352E+00","CO10_D00_":"2","CO10_D00_I":"1","STATE":"10","COUNTY":"003","NAME":"New Castle","LSAD":"06","LSAD_TRANS":"County","CODE":"dren","CODE_ACC":"dren","CODE_ABS":"dren","CODE_EV":"nev","sourceDocumentId":"verified-voting-verifier-de-2024-equipment","sourceUrl":"https://verifiedvoting.org/verifier/#mode/navigate/map/voteEquip/mapType/ppEquip/year/2024/state/10"}},{"type":"Feature","bbox":[-75.57080078125,39.605224609375,-75.555847167969,39.629791259766],"geometry":{"type":"Polygon","coordinates":[[[-75.555847167969,39.605804443359],[-75.561889648438,39.605224609375],[-75.57080078125,39.626739501953],[-75.559448242188,39.629791259766],[-75.555847167969,39.605804443359]]]},"properties":{"_isDeleted":false,"AREA":"2.30049680000066E-04","PERIMETER":"6.70701606153380E-02","CO10_D00_":"3","CO10_D00_I":"2","STATE":"10","COUNTY":"003","NAME":"New Castle","LSAD":"06","LSAD_TRANS":"County","CODE":"dren","CODE_ACC":"dren","CODE_ABS":"dren","CODE_EV":"nev","sourceDocumentId":"verified-voting-verifier-de-2024-equipment","sourceUrl":"https://verifiedvoting.org/verifier/#mode/navigate/map/voteEquip/mapType/ppEquip/year/2024/state/10"}},{"type":"Feature","bbox":[-75.57958984375,39.583221435547,-75.564880371094,39.5986328125],"geometry":{"type":"Polygon","coordinates":[[[-75.564880371094,39.583221435547],[-75.576232910156,39.588134765625],[-75.57958984375,39.5986328125],[-75.565795898438,39.590606689453],[-75.564880371094,39.583221435547]]]},"properties":{"_isDeleted":false,"AREA":"1.05835776000152E-04","PERIMETER":"4.71032874437456E-02","CO10_D00_":"4","CO10_D00_I":"3","STATE":"10","COUNTY":"003","NAME":"New Castle","LSAD":"06","LSAD_TRANS":"County","CODE":"dren","CODE_ACC":"dren","CODE_ABS":"dren","CODE_EV":"nev","sourceDocumentId":"verified-voting-verifier-de-2024-equipment","sourceUrl":"https://verifiedvoting.org/verifier/#mode/navigate/map/voteEquip/mapType/ppEquip/year/2024/state/10"}},{"type":"Feature","bbox":[-75.760070800781,38.829986572266,-75.311889648438,39.365844726562],"geometry":{"type":"Polygon","coordinates":[[[-75.593994140625,39.308471679688],[-75.574645996094,39.313232421875],[-75.569213867188,39.328735351562],[-75.556213378906,39.33544921875],[-75.560607910156,39.345153808594],[-75.557434082031,39.348815917969],[-75.551330566406,39.345489501953],[-75.552368164062,39.353729248047],[-75.534912109375,39.350799560547],[-75.512634277344,39.365844726562],[-75.494140625,39.354583740234],[-75.490356445312,39.342803955078],[-75.43896484375,39.313385009766],[-75.435363769531,39.296661376953],[-75.402954101562,39.254608154297],[-75.405700683594,39.223815917969],[-75.396850585938,39.216125488281],[-75.393005371094,39.204498291016],[-75.394775390625,39.188323974609],[-75.408264160156,39.174591064453],[-75.410583496094,39.15625],[-75.401184082031,39.088745117188],[-75.402038574219,39.066864013672],[-75.387878417969,39.051177978516],[-75.340881347656,39.019958496094],[-75.31494140625,38.980773925781],[-75.311889648438,38.945861816406],[-75.319641113281,38.953430175781],[-75.327087402344,38.948455810547],[-75.343444824219,38.947479248047],[-75.344055175781,38.955169677734],[-75.352172851562,38.947570800781],[-75.360473632812,38.957733154297],[-75.366394042969,38.953887939453],[-75.371887207031,38.961090087891],[-75.381286621094,38.959350585938],[-75.400634765625,38.947692871094],[-75.398498535156,38.940856933594],[-75.402587890625,38.937469482422],[-75.395263671875,38.933227539062],[-75.400512695312,38.930999755859],[-75.401611328125,38.917877197266],[-75.409057617188,38.919708251953],[-75.408935546875,38.916412353516],[-75.416198730469,38.917755126953],[-75.433349609375,38.911163330078],[-75.465454101562,38.910949707031],[-75.485107421875,38.903503417969],[-75.490295410156,38.889495849609],[-75.508117675781,38.878967285156],[-75.520385742188,38.855773925781],[-75.536376953125,38.849945068359],[-75.538757324219,38.844329833984],[-75.554809570312,38.835510253906],[-75.722595214844,38.829986572266],[-75.760070800781,39.296569824219],[-75.714782714844,39.299346923828],[-75.685424804688,39.297180175781],[-75.667236328125,39.289978027344],[-75.651123046875,39.291717529297],[-75.64208984375,39.300842285156],[-75.621459960938,39.308868408203],[-75.593994140625,39.308471679688]]]},"properties":{"_isDeleted":false,"AREA":"1.61522887216737E-01","PERIMETER":"1.85907450526820E+00","CO10_D00_":"5","CO10_D00_I":"4","STATE":"10","COUNTY":"001","NAME":"Kent","LSAD":"06","LSAD_TRANS":"County","CODE":"dren","CODE_ACC":"dren","CODE_ABS":"dren","CODE_EV":"nev","sourceDocumentId":"verified-voting-verifier-de-2024-equipment","sourceUrl":"https://verifiedvoting.org/verifier/#mode/navigate/map/voteEquip/mapType/ppEquip/year/2024/state/10"}},{"type":"Feature","bbox":[-75.722595214844,38.451263427734,-75.048889160156,38.961090087891],"geometry":{"type":"Polygon","coordinates":[[[-75.722595214844,38.829986572266],[-75.554809570312,38.835510253906],[-75.538757324219,38.844329833984],[-75.536376953125,38.849945068359],[-75.520385742188,38.855773925781],[-75.508117675781,38.878967285156],[-75.490295410156,38.889495849609],[-75.485107421875,38.903503417969],[-75.465454101562,38.910949707031],[-75.433349609375,38.911163330078],[-75.416198730469,38.917755126953],[-75.408935546875,38.916412353516],[-75.409057617188,38.919708251953],[-75.401611328125,38.917877197266],[-75.400512695312,38.930999755859],[-75.395263671875,38.933227539062],[-75.402587890625,38.937469482422],[-75.398498535156,38.940856933594],[-75.400634765625,38.947692871094],[-75.381286621094,38.959350585938],[-75.371887207031,38.961090087891],[-75.366394042969,38.953887939453],[-75.360473632812,38.957733154297],[-75.352172851562,38.947570800781],[-75.344055175781,38.955169677734],[-75.343444824219,38.947479248047],[-75.327087402344,38.948455810547],[-75.319641113281,38.953430175781],[-75.311889648438,38.945861816406],[-75.302490234375,38.93896484375],[-75.312255859375,38.924591064453],[-75.304016113281,38.913146972656],[-75.190490722656,38.806823730469],[-75.133972167969,38.7822265625],[-75.097045898438,38.788696289062],[-75.093627929688,38.793975830078],[-75.09716796875,38.803100585938],[-75.089416503906,38.797180175781],[-75.082092285156,38.772155761719],[-75.065490722656,38.661010742188],[-75.048889160156,38.451263427734],[-75.3935546875,38.452087402344],[-75.693481445312,38.460113525391],[-75.722595214844,38.829986572266]]]},"properties":{"_isDeleted":false,"AREA":"2.62386584778622E-01","PERIMETER":"2.23164841188370E+00","CO10_D00_":"6","CO10_D00_I":"5","STATE":"10","COUNTY":"005","NAME":"Sussex","LSAD":"06","LSAD_TRANS":"County","CODE":"dren","CODE_ACC":"dren","CODE_ABS":"dren","CODE_EV":"nev","sourceDocumentId":"verified-voting-verifier-de-2024-equipment","sourceUrl":"https://verifiedvoting.org/verifier/#mode/navigate/map/voteEquip/mapType/ppEquip/year/2024/state/10"}}],"properties":{"electionYear":2024,"source":"Verified Voting Verifier area geometry","sourceDocumentId":"verified-voting-verifier-de-2024-equipment","sourceUrl":"https://verifiedvoting.org/verifier/#mode/navigate/map/voteEquip/mapType/ppEquip/year/2024/state/10","state":"DE"}}
