{"type":"FeatureCollection","bbox":[-109.05017089844,31.332275390625,-103.001953125,37.000244140625],"features":[{"type":"Feature","bbox":[-104.00891113281,35.7392578125,-103.00219726562,37.000061035156],"geometry":{"type":"Polygon","coordinates":[[[-103.04125976562,35.7392578125],[-103.26800537109,35.740081787109],[-103.375,35.739990234375],[-103.37487792969,35.998596191406],[-103.36492919922,35.998687744141],[-103.36492919922,36.086364746094],[-103.79437255859,36.085815429688],[-103.79400634766,36.173950195312],[-104.00891113281,36.174499511719],[-104.00891113281,36.217987060547],[-104.0078125,36.996276855469],[-103.00219726562,37.000061035156],[-103.00238037109,36.500396728516],[-103.04187011719,36.500396728516],[-103.04125976562,35.7392578125]]]},"properties":{"_isDeleted":false,"AREA":"9.97717165462962E-01","PERIMETER":"4.55234028041982E+00","CO35_D00_":"2","CO35_D00_I":"1","STATE":"35","COUNTY":"059","NAME":"Union","LSAD":"06","LSAD_TRANS":"County","CODE":"pbvs","CODE_ACC":"bmds","CODE_ABS":"bmds","CODE_EV":"pbvs","equipmentGroupLabel":"Dominion - Dominion ImageCast Evolution +","equipmentSystemName":"Dominion ImageCast Evolution +","equipmentType":"Optical Scan","equipmentVendor":"Dominion","jurisdictionCode":"NM-059","jurisdictionName":"Union County","sourceGranularity":"county","standardSystem":"Hand marked paper ballots, BMDs for accessibility","accessibleSystem":"Ballot Marking Devices for all voters","absenteeSystem":"Hand-Fed Optical Scanners","pollBookSystem":"In-House Electronic Poll Book","tabulation":"Optical Scan","equipmentCodeMatched":true,"sourceDocumentId":"verified-voting-verifier-nm-2024-equipment","sourceUrl":"https://verifiedvoting.org/verifier/#mode/navigate/map/voteEquip/mapType/ppEquip/year/2024/state/35"}},{"type":"Feature","bbox":[-107.62670898438,35.930755615234,-105.53033447266,37.000152587891],"geometry":{"type":"Polygon","coordinates":[[[-106.00659179688,36.995330810547],[-106.00640869141,36.981414794922],[-105.98931884766,36.943939208984],[-105.98571777344,36.92041015625],[-105.97546386719,36.902404785156],[-105.97186279297,36.886260986328],[-105.97454833984,36.837432861328],[-105.98449707031,36.811309814453],[-105.98016357422,36.774200439453],[-105.98211669922,36.746337890625],[-105.97729492188,36.722442626953],[-105.98107910156,36.713195800781],[-105.97082519531,36.683135986328],[-105.96826171875,36.659576416016],[-105.98431396484,36.659576416016],[-105.98431396484,36.645477294922],[-105.97241210938,36.648132324219],[-105.97174072266,36.632446289062],[-105.95562744141,36.575408935547],[-105.94989013672,36.542572021484],[-105.95477294922,36.539154052734],[-105.95239257812,36.519592285156],[-105.94268798828,36.499633789062],[-105.93872070312,36.462371826172],[-105.95452880859,36.425262451172],[-105.95147705078,36.382080078125],[-105.95983886719,36.354461669922],[-105.97174072266,36.344604492188],[-105.98468017578,36.343109130859],[-106.00158691406,36.332244873047],[-106.03851318359,36.325500488281],[-106.05834960938,36.296966552734],[-105.85675048828,36.230346679688],[-105.73590087891,36.100128173828],[-105.53033447266,36.013000488281],[-105.53668212891,35.991485595703],[-105.55749511719,35.984008789062],[-105.57232666016,35.972473144531],[-105.59161376953,35.975799560547],[-105.60345458984,35.973205566406],[-105.63201904297,35.979583740234],[-105.64422607422,35.96923828125],[-105.64514160156,35.962158203125],[-105.66003417969,35.958557128906],[-105.68084716797,35.968505859375],[-105.69232177734,35.965759277344],[-105.70751953125,35.968688964844],[-105.71734619141,35.978759765625],[-105.71667480469,36.002380371094],[-106.07135009766,36.002014160156],[-106.06481933594,35.996673583984],[-106.06610107422,35.989196777344],[-106.05596923828,35.989288330078],[-106.0576171875,35.986694335938],[-106.05407714844,35.985778808594],[-106.05407714844,35.930755615234],[-106.24542236328,35.930938720703],[-106.24792480469,35.96630859375],[-106.24719238281,36.00146484375],[-106.88525390625,35.998962402344],[-106.88500976562,36.216583251953],[-107.62426757812,36.219818115234],[-107.62670898438,36.437530517578],[-107.61834716797,36.804748535156],[-107.60968017578,36.798583984375],[-107.60339355469,36.798950195312],[-107.6064453125,36.810852050781],[-107.59423828125,36.810302734375],[-107.59155273438,36.813812255859],[-107.60052490234,36.816680908203],[-107.59985351562,36.832550048828],[-107.58953857422,36.837158203125],[-107.57995605469,36.835113525391],[-107.56695556641,36.844360351562],[-107.56262207031,36.855072021484],[-107.55596923828,36.857086181641],[-107.54614257812,36.849060058594],[-107.53973388672,36.855529785156],[-107.53063964844,36.853851318359],[-107.52288818359,36.875457763672],[-107.51580810547,36.87841796875],[-107.50482177734,36.875274658203],[-107.50207519531,36.882568359375],[-107.494140625,36.876190185547],[-107.47546386719,36.894653320312],[-107.45690917969,36.898071289062],[-107.44567871094,36.915313720703],[-107.45495605469,36.931121826172],[-107.455078125,36.937927246094],[-107.44836425781,36.944854736328],[-107.45709228516,36.954925537109],[-107.44610595703,36.965911865234],[-107.42999267578,36.970886230469],[-107.43145751953,36.986297607422],[-107.4208984375,36.999969482422],[-106.87725830078,37.000152587891],[-106.86975097656,36.992401123047],[-106.00659179688,36.995330810547]]]},"properties":{"_isDeleted":false,"AREA":"1.53625400121054E+00","PERIMETER":"6.43129388956447E+00","CO35_D00_":"3","CO35_D00_I":"2","STATE":"35","COUNTY":"039","NAME":"Rio Arriba","LSAD":"06","LSAD_TRANS":"County","CODE":"pbvs","CODE_ACC":"bmds","CODE_ABS":"bmds","CODE_EV":"pbvs","equipmentGroupLabel":"Dominion - Dominion ImageCast Evolution +","equipmentSystemName":"Dominion ImageCast Evolution +","equipmentType":"Optical Scan","equipmentVendor":"Dominion","jurisdictionCode":"NM-039","jurisdictionName":"Rio Arriba County","sourceGranularity":"county","standardSystem":"Hand marked paper ballots, BMDs for accessibility","accessibleSystem":"Ballot Marking Devices for all voters","absenteeSystem":"Hand-Fed Optical Scanners","pollBookSystem":"In-House Electronic Poll Book","tabulation":"Optical Scan","equipmentCodeMatched":true,"sourceDocumentId":"verified-voting-verifier-nm-2024-equipment","sourceUrl":"https://verifiedvoting.org/verifier/#mode/navigate/map/voteEquip/mapType/ppEquip/year/2024/state/35"}},{"type":"Feature","bbox":[-109.0458984375,36.000274658203,-107.4208984375,36.999969482422],"geometry":{"type":"Polygon","coordinates":[[[-107.4208984375,36.999969482422],[-107.43145751953,36.986297607422],[-107.42999267578,36.970886230469],[-107.44610595703,36.965911865234],[-107.45709228516,36.954925537109],[-107.44836425781,36.944854736328],[-107.455078125,36.937927246094],[-107.45495605469,36.931121826172],[-107.44567871094,36.915313720703],[-107.45690917969,36.898071289062],[-107.47546386719,36.894653320312],[-107.494140625,36.876190185547],[-107.50207519531,36.882568359375],[-107.50482177734,36.875274658203],[-107.51580810547,36.87841796875],[-107.52288818359,36.875457763672],[-107.53063964844,36.853851318359],[-107.53973388672,36.855529785156],[-107.54614257812,36.849060058594],[-107.55596923828,36.857086181641],[-107.56262207031,36.855072021484],[-107.56695556641,36.844360351562],[-107.57995605469,36.835113525391],[-107.58953857422,36.837158203125],[-107.59985351562,36.832550048828],[-107.60052490234,36.816680908203],[-107.59155273438,36.813812255859],[-107.59423828125,36.810302734375],[-107.6064453125,36.810852050781],[-107.60339355469,36.798950195312],[-107.60968017578,36.798583984375],[-107.61834716797,36.804748535156],[-107.62670898438,36.437530517578],[-107.62426757812,36.219818115234],[-107.62646484375,36.000274658203],[-108.88427734375,36.002655029297],[-109.0458984375,36.002288818359],[-109.04516601562,36.9990234375],[-107.4208984375,36.999969482422]]]},"properties":{"_isDeleted":false,"AREA":"1.44307726066947E+00","PERIMETER":"5.26486319204441E+00","CO35_D00_":"4","CO35_D00_I":"3","STATE":"35","COUNTY":"045","NAME":"San Juan","LSAD":"06","LSAD_TRANS":"County","CODE":"pbvs","CODE_ACC":"bmds","CODE_ABS":"bmds","CODE_EV":"pbvs","equipmentGroupLabel":"Dominion - Dominion ImageCast Evolution +","equipmentSystemName":"Dominion ImageCast Evolution +","equipmentType":"Optical Scan","equipmentVendor":"Dominion","jurisdictionCode":"NM-045","jurisdictionName":"San Juan County","sourceGranularity":"county","standardSystem":"Hand marked paper ballots, BMDs for accessibility","accessibleSystem":"Ballot Marking Devices for all voters","absenteeSystem":"Batch-Fed Optical Scanners","pollBookSystem":"In-House Electronic Poll Book","tabulation":"Optical Scan","equipmentCodeMatched":true,"sourceDocumentId":"verified-voting-verifier-nm-2024-equipment","sourceUrl":"https://verifiedvoting.org/verifier/#mode/navigate/map/voteEquip/mapType/ppEquip/year/2024/state/35"}},{"type":"Feature","bbox":[-105.37768554688,36.217987060547,-104.0078125,36.996276855469],"geometry":{"type":"Polygon","coordinates":[[[-104.0078125,36.996276855469],[-104.00891113281,36.217987060547],[-104.15222167969,36.21826171875],[-104.43634033203,36.218719482422],[-104.86547851562,36.217987060547],[-104.86517333984,36.261169433594],[-105.34088134766,36.262268066406],[-105.32739257812,36.277130126953],[-105.33599853516,36.303344726562],[-105.32861328125,36.338958740234],[-105.33245849609,36.346435546875],[-105.32879638672,36.350494384766],[-105.33209228516,36.366943359375],[-105.33734130859,36.368865966797],[-105.32507324219,36.388610839844],[-105.33062744141,36.404510498047],[-105.32788085938,36.408294677734],[-105.34039306641,36.416046142578],[-105.33642578125,36.442413330078],[-105.34320068359,36.446502685547],[-105.35296630859,36.443084716797],[-105.35711669922,36.451568603516],[-105.34936523438,36.455718994141],[-105.33636474609,36.483489990234],[-105.32214355469,36.486633300781],[-105.31872558594,36.49169921875],[-105.33679199219,36.504913330078],[-105.33801269531,36.509979248047],[-105.34326171875,36.510345458984],[-105.35046386719,36.533050537109],[-105.37768554688,36.55224609375],[-105.37530517578,36.556213378906],[-105.36975097656,36.554656982422],[-105.34924316406,36.562225341797],[-105.35778808594,36.589172363281],[-105.37438964844,36.608184814453],[-105.36578369141,36.627380371094],[-105.35101318359,36.633392333984],[-105.36401367188,36.654052734375],[-105.35998535156,36.661712646484],[-105.36956787109,36.670013427734],[-105.37042236328,36.68017578125],[-105.35021972656,36.696960449219],[-105.33551025391,36.702423095703],[-105.32196044922,36.698455810547],[-105.31176757812,36.724456787109],[-105.29083251953,36.728424072266],[-105.28070068359,36.718292236328],[-105.25024414062,36.717376708984],[-105.23059082031,36.723724365234],[-105.22430419922,36.734069824219],[-105.22662353516,36.771453857422],[-105.23516845703,36.788146972656],[-105.22631835938,36.803375244141],[-105.23333740234,36.807250976562],[-105.23345947266,36.811950683594],[-105.22399902344,36.825531005859],[-105.22937011719,36.847686767578],[-105.22143554688,36.874267578125],[-105.20013427734,36.915618896484],[-105.21173095703,36.919769287109],[-105.21307373047,36.932312011719],[-105.22100830078,36.934234619141],[-105.22839355469,36.954559326172],[-105.23614501953,36.962310791016],[-105.23614501953,36.981964111328],[-105.22344970703,36.986663818359],[-105.22064208984,36.995147705078],[-104.0078125,36.996276855469]]]},"properties":{"_isDeleted":false,"AREA":"9.83021767884537E-01","PERIMETER":"4.46640491207765E+00","CO35_D00_":"5","CO35_D00_I":"4","STATE":"35","COUNTY":"007","NAME":"Colfax","LSAD":"06","LSAD_TRANS":"County","CODE":"pbvs","CODE_ACC":"bmds","CODE_ABS":"bmds","CODE_EV":"pbvs","equipmentGroupLabel":"Dominion - Dominion ImageCast Evolution +","equipmentSystemName":"Dominion ImageCast Evolution +","equipmentType":"Optical Scan","equipmentVendor":"Dominion","jurisdictionCode":"NM-007","jurisdictionName":"Colfax County","sourceGranularity":"county","standardSystem":"Hand marked paper ballots, BMDs for accessibility","accessibleSystem":"Ballot Marking Devices for all voters","absenteeSystem":"Hand-Fed Optical Scanners","pollBookSystem":"Commercial Electronic Poll Book","tabulation":"Optical Scan","equipmentCodeMatched":true,"sourceDocumentId":"verified-voting-verifier-nm-2024-equipment","sourceUrl":"https://verifiedvoting.org/verifier/#mode/navigate/map/voteEquip/mapType/ppEquip/year/2024/state/35"}},{"type":"Feature","bbox":[-106.05834960938,36.013000488281,-105.20013427734,36.995330810547],"geometry":{"type":"Polygon","coordinates":[[[-105.22064208984,36.995147705078],[-105.22344970703,36.986663818359],[-105.23614501953,36.981964111328],[-105.23614501953,36.962310791016],[-105.22839355469,36.954559326172],[-105.22100830078,36.934234619141],[-105.21307373047,36.932312011719],[-105.21173095703,36.919769287109],[-105.20013427734,36.915618896484],[-105.22143554688,36.874267578125],[-105.22937011719,36.847686767578],[-105.22399902344,36.825531005859],[-105.23345947266,36.811950683594],[-105.23333740234,36.807250976562],[-105.22631835938,36.803375244141],[-105.23516845703,36.788146972656],[-105.22662353516,36.771453857422],[-105.22430419922,36.734069824219],[-105.23059082031,36.723724365234],[-105.25024414062,36.717376708984],[-105.28070068359,36.718292236328],[-105.29083251953,36.728424072266],[-105.31176757812,36.724456787109],[-105.32196044922,36.698455810547],[-105.33551025391,36.702423095703],[-105.35021972656,36.696960449219],[-105.37042236328,36.68017578125],[-105.36956787109,36.670013427734],[-105.35998535156,36.661712646484],[-105.36401367188,36.654052734375],[-105.35101318359,36.633392333984],[-105.36578369141,36.627380371094],[-105.37438964844,36.608184814453],[-105.35778808594,36.589172363281],[-105.34924316406,36.562225341797],[-105.36975097656,36.554656982422],[-105.37530517578,36.556213378906],[-105.37768554688,36.55224609375],[-105.35046386719,36.533050537109],[-105.34326171875,36.510345458984],[-105.33801269531,36.509979248047],[-105.33679199219,36.504913330078],[-105.31872558594,36.49169921875],[-105.32214355469,36.486633300781],[-105.33636474609,36.483489990234],[-105.34936523438,36.455718994141],[-105.35711669922,36.451568603516],[-105.35296630859,36.443084716797],[-105.34320068359,36.446502685547],[-105.33642578125,36.442413330078],[-105.34039306641,36.416046142578],[-105.32788085938,36.408294677734],[-105.33062744141,36.404510498047],[-105.32507324219,36.388610839844],[-105.33734130859,36.368865966797],[-105.33209228516,36.366943359375],[-105.32879638672,36.350494384766],[-105.33245849609,36.346435546875],[-105.32861328125,36.338958740234],[-105.33599853516,36.303344726562],[-105.32739257812,36.277130126953],[-105.34088134766,36.262268066406],[-105.38726806641,36.252868652344],[-105.39373779297,36.243530273438],[-105.40960693359,36.23681640625],[-105.40069580078,36.230529785156],[-105.39276123047,36.216125488281],[-105.39916992188,36.203308105469],[-105.39599609375,36.197845458984],[-105.39929199219,36.188262939453],[-105.42169189453,36.169891357422],[-105.42126464844,36.161956787109],[-105.41467285156,36.157073974609],[-105.42095947266,36.148468017578],[-105.41998291016,36.131683349609],[-105.46276855469,36.078430175781],[-105.4892578125,36.037353515625],[-105.49829101562,36.032562255859],[-105.50866699219,36.019073486328],[-105.53033447266,36.013000488281],[-105.73590087891,36.100128173828],[-105.85675048828,36.230346679688],[-106.05834960938,36.296966552734],[-106.03851318359,36.325500488281],[-106.00158691406,36.332244873047],[-105.98468017578,36.343109130859],[-105.97174072266,36.344604492188],[-105.95983886719,36.354461669922],[-105.95147705078,36.382080078125],[-105.95452880859,36.425262451172],[-105.93872070312,36.462371826172],[-105.94268798828,36.499633789062],[-105.95239257812,36.519592285156],[-105.95477294922,36.539154052734],[-105.94989013672,36.542572021484],[-105.95562744141,36.575408935547],[-105.97174072266,36.632446289062],[-105.97241210938,36.648132324219],[-105.98431396484,36.645477294922],[-105.98431396484,36.659576416016],[-105.96826171875,36.659576416016],[-105.97082519531,36.683135986328],[-105.98107910156,36.713195800781],[-105.97729492188,36.722442626953],[-105.98211669922,36.746337890625],[-105.98016357422,36.774200439453],[-105.98449707031,36.811309814453],[-105.97454833984,36.837432861328],[-105.97186279297,36.886260986328],[-105.97546386719,36.902404785156],[-105.98571777344,36.92041015625],[-105.98931884766,36.943939208984],[-106.00640869141,36.981414794922],[-106.00659179688,36.995330810547],[-105.22064208984,36.995147705078]]]},"properties":{"_isDeleted":false,"AREA":"5.74901311400998E-01","PERIMETER":"3.70949196734306E+00","CO35_D00_":"6","CO35_D00_I":"5","STATE":"35","COUNTY":"055","NAME":"Taos","LSAD":"06","LSAD_TRANS":"County","CODE":"pbvs","CODE_ACC":"bmds","CODE_ABS":"bmds","CODE_EV":"pbvs","equipmentGroupLabel":"Dominion - Dominion ImageCast Evolution +","equipmentSystemName":"Dominion ImageCast Evolution +","equipmentType":"Optical Scan","equipmentVendor":"Dominion","jurisdictionCode":"NM-055","jurisdictionName":"Taos County","sourceGranularity":"county","standardSystem":"Hand marked paper ballots, BMDs for accessibility","accessibleSystem":"Ballot Marking Devices for all voters","absenteeSystem":"Hand-Fed Optical Scanners","pollBookSystem":"In-House Electronic Poll Book","tabulation":"Optical Scan","equipmentCodeMatched":true,"sourceDocumentId":"verified-voting-verifier-nm-2024-equipment","sourceUrl":"https://verifiedvoting.org/verifier/#mode/navigate/map/voteEquip/mapType/ppEquip/year/2024/state/35"}},{"type":"Feature","bbox":[-105.72027587891,35.754211425781,-104.32720947266,36.262268066406],"geometry":{"type":"Polygon","coordinates":[[[-105.34088134766,36.262268066406],[-104.86517333984,36.261169433594],[-104.86547851562,36.217987060547],[-104.43634033203,36.218719482422],[-104.43060302734,36.213836669922],[-104.43402099609,36.201080322266],[-104.42687988281,36.196929931641],[-104.43908691406,36.195098876953],[-104.43218994141,36.188262939453],[-104.43621826172,36.177185058594],[-104.42822265625,36.176635742188],[-104.42785644531,36.183746337891],[-104.42425537109,36.184020996094],[-104.41418457031,36.175811767578],[-104.41876220703,36.165740966797],[-104.40325927734,36.153747558594],[-104.40875244141,36.139984130859],[-104.41418457031,36.146087646484],[-104.42053222656,36.142852783203],[-104.41833496094,36.136840820312],[-104.40948486328,36.131774902344],[-104.41442871094,36.122833251953],[-104.40270996094,36.116546630859],[-104.39758300781,36.099761962891],[-104.40032958984,36.090972900391],[-104.3857421875,36.088317871094],[-104.39025878906,36.08203125],[-104.38153076172,36.076202392578],[-104.37774658203,36.067443847656],[-104.37005615234,36.065612792969],[-104.37872314453,36.056823730469],[-104.37982177734,36.048522949219],[-104.36553955078,36.044006347656],[-104.36163330078,36.038848876953],[-104.36065673828,36.023071289062],[-104.36535644531,36.013366699219],[-104.3505859375,36.010498046875],[-104.34808349609,36.004425048828],[-104.33996582031,36.001098632812],[-104.34118652344,35.991668701172],[-104.35620117188,35.983825683594],[-104.32720947266,35.959930419922],[-104.33911132812,35.950134277344],[-104.34375,35.955322265625],[-104.35223388672,35.953643798828],[-104.3388671875,35.943237304688],[-104.34197998047,35.939544677734],[-104.35314941406,35.940093994141],[-104.35455322266,35.929382324219],[-104.34252929688,35.930389404297],[-104.33813476562,35.923187255859],[-104.35424804688,35.921081542969],[-104.34368896484,35.910369873047],[-104.35382080078,35.907501220703],[-104.35021972656,35.900482177734],[-104.35290527344,35.897277832031],[-104.36755371094,35.897644042969],[-104.35888671875,35.887481689453],[-104.37377929688,35.881744384766],[-104.36682128906,35.871337890625],[-104.37414550781,35.871246337891],[-104.37811279297,35.878631591797],[-104.38153076172,35.862640380859],[-104.39080810547,35.858581542969],[-104.376953125,35.85205078125],[-104.38153076172,35.842254638672],[-104.37548828125,35.841705322266],[-104.37396240234,35.848449707031],[-104.36462402344,35.842163085938],[-104.37976074219,35.836364746094],[-104.36663818359,35.829986572266],[-104.3779296875,35.823333740234],[-104.36322021484,35.811431884766],[-104.37109375,35.806732177734],[-104.36090087891,35.785308837891],[-104.36730957031,35.781433105469],[-104.99871826172,35.772033691406],[-105.01849365234,35.769714355469],[-105.025390625,35.754211425781],[-105.03704833984,35.765106201172],[-105.03503417969,35.76953125],[-105.04205322266,35.767974853516],[-105.05780029297,35.780059814453],[-105.07110595703,35.781433105469],[-105.10913085938,35.806732177734],[-105.13830566406,35.811340332031],[-105.15008544922,35.809112548828],[-105.15991210938,35.819274902344],[-105.17602539062,35.825286865234],[-105.21929931641,35.829711914062],[-105.22399902344,35.837097167969],[-105.34777832031,35.870697021484],[-105.72027587891,35.870971679688],[-105.71734619141,35.978759765625],[-105.70751953125,35.968688964844],[-105.69232177734,35.965759277344],[-105.68084716797,35.968505859375],[-105.66003417969,35.958557128906],[-105.64514160156,35.962158203125],[-105.64422607422,35.96923828125],[-105.63201904297,35.979583740234],[-105.60345458984,35.973205566406],[-105.59161376953,35.975799560547],[-105.57232666016,35.972473144531],[-105.55749511719,35.984008789062],[-105.53668212891,35.991485595703],[-105.53033447266,36.013000488281],[-105.50866699219,36.019073486328],[-105.49829101562,36.032562255859],[-105.4892578125,36.037353515625],[-105.46276855469,36.078430175781],[-105.41998291016,36.131683349609],[-105.42095947266,36.148468017578],[-105.41467285156,36.157073974609],[-105.42126464844,36.161956787109],[-105.42169189453,36.169891357422],[-105.39929199219,36.188262939453],[-105.39599609375,36.197845458984],[-105.39916992188,36.203308105469],[-105.39276123047,36.216125488281],[-105.40069580078,36.230529785156],[-105.40960693359,36.23681640625],[-105.39373779297,36.243530273438],[-105.38726806641,36.252868652344],[-105.34088134766,36.262268066406]]]},"properties":{"_isDeleted":false,"AREA":"5.00642093506021E-01","PERIMETER":"3.97293985727699E+00","CO35_D00_":"7","CO35_D00_I":"6","STATE":"35","COUNTY":"033","NAME":"Mora","LSAD":"06","LSAD_TRANS":"County","CODE":"pbvs","CODE_ACC":"bmds","CODE_ABS":"bmds","CODE_EV":"pbvs","equipmentGroupLabel":"Dominion - Dominion ImageCast Evolution +","equipmentSystemName":"Dominion ImageCast Evolution +","equipmentType":"Optical Scan","equipmentVendor":"Dominion","jurisdictionCode":"NM-033","jurisdictionName":"Mora County","sourceGranularity":"county","standardSystem":"Hand marked paper ballots, BMDs for accessibility","accessibleSystem":"Ballot Marking Devices for all voters","absenteeSystem":"Hand-Fed Optical Scanners","pollBookSystem":"In-House Electronic Poll Book","tabulation":"Optical Scan","equipmentCodeMatched":true,"sourceDocumentId":"verified-voting-verifier-nm-2024-equipment","sourceUrl":"https://verifiedvoting.org/verifier/#mode/navigate/map/voteEquip/mapType/ppEquip/year/2024/state/35"}},{"type":"Feature","bbox":[-107.62646484375,35.215057373047,-106.2451171875,36.219818115234],"geometry":{"type":"Polygon","coordinates":[[[-107.62426757812,36.219818115234],[-106.88500976562,36.216583251953],[-106.88525390625,35.998962402344],[-106.24719238281,36.00146484375],[-106.24792480469,35.96630859375],[-106.26416015625,35.965454101562],[-106.26416015625,35.972747802734],[-106.30035400391,35.973419189453],[-106.30017089844,35.958465576172],[-106.31677246094,35.958557128906],[-106.31530761719,35.952453613281],[-106.38635253906,35.952545166016],[-106.38623046875,35.960113525391],[-106.39965820312,35.960021972656],[-106.39953613281,35.827575683594],[-106.41821289062,35.827667236328],[-106.41864013672,35.819183349609],[-106.41107177734,35.810882568359],[-106.40063476562,35.807556152344],[-106.38226318359,35.807922363281],[-106.37036132812,35.813079833984],[-106.35681152344,35.806457519531],[-106.35687255859,35.816223144531],[-106.28259277344,35.791870117188],[-106.25775146484,35.769622802734],[-106.25396728516,35.754211425781],[-106.24816894531,35.755493164062],[-106.24908447266,35.304473876953],[-106.24578857422,35.304473876953],[-106.2451171875,35.215057373047],[-107.19610595703,35.219299316406],[-107.23913574219,35.305297851562],[-107.30999755859,35.305206298828],[-107.30963134766,35.419006347656],[-107.30657958984,35.418548583984],[-107.30816650391,35.998687744141],[-107.62646484375,36.000274658203],[-107.62426757812,36.219818115234]]]},"properties":{"_isDeleted":false,"AREA":"9.57724256991009E-01","PERIMETER":"5.09314144129857E+00","CO35_D00_":"8","CO35_D00_I":"7","STATE":"35","COUNTY":"043","NAME":"Sandoval","LSAD":"06","LSAD_TRANS":"County","CODE":"pbvs","CODE_ACC":"bmds","CODE_ABS":"bmds","CODE_EV":"pbvs","equipmentGroupLabel":"Dominion - Dominion ImageCast Evolution +","equipmentSystemName":"Dominion ImageCast Evolution +","equipmentType":"Optical Scan","equipmentVendor":"Dominion","jurisdictionCode":"NM-043","jurisdictionName":"Sandoval County","sourceGranularity":"county","standardSystem":"Hand marked paper ballots, BMDs for accessibility","accessibleSystem":"Ballot Marking Devices for all voters","absenteeSystem":"Batch-Fed Optical Scanners","pollBookSystem":"In-House Electronic Poll Book","tabulation":"Optical Scan","equipmentCodeMatched":true,"sourceDocumentId":"verified-voting-verifier-nm-2024-equipment","sourceUrl":"https://verifiedvoting.org/verifier/#mode/navigate/map/voteEquip/mapType/ppEquip/year/2024/state/35"}},{"type":"Feature","bbox":[-104.43908691406,35.3896484375,-103.36492919922,36.218719482422],"geometry":{"type":"Polygon","coordinates":[[[-104.15222167969,36.21826171875],[-104.00891113281,36.217987060547],[-104.00891113281,36.174499511719],[-103.79400634766,36.173950195312],[-103.79437255859,36.085815429688],[-103.36492919922,36.086364746094],[-103.36492919922,35.998687744141],[-103.37487792969,35.998596191406],[-103.375,35.739990234375],[-103.37524414062,35.652404785156],[-103.37933349609,35.652404785156],[-103.3798828125,35.397979736328],[-103.39031982422,35.389953613281],[-103.63708496094,35.3896484375],[-103.63714599609,35.421966552734],[-103.72454833984,35.422241210938],[-103.97680664062,35.801635742188],[-104.02130126953,35.781433105469],[-104.36730957031,35.781433105469],[-104.36090087891,35.785308837891],[-104.37109375,35.806732177734],[-104.36322021484,35.811431884766],[-104.3779296875,35.823333740234],[-104.36663818359,35.829986572266],[-104.37976074219,35.836364746094],[-104.36462402344,35.842163085938],[-104.37396240234,35.848449707031],[-104.37548828125,35.841705322266],[-104.38153076172,35.842254638672],[-104.376953125,35.85205078125],[-104.39080810547,35.858581542969],[-104.38153076172,35.862640380859],[-104.37811279297,35.878631591797],[-104.37414550781,35.871246337891],[-104.36682128906,35.871337890625],[-104.37377929688,35.881744384766],[-104.35888671875,35.887481689453],[-104.36755371094,35.897644042969],[-104.35290527344,35.897277832031],[-104.35021972656,35.900482177734],[-104.35382080078,35.907501220703],[-104.34368896484,35.910369873047],[-104.35424804688,35.921081542969],[-104.33813476562,35.923187255859],[-104.34252929688,35.930389404297],[-104.35455322266,35.929382324219],[-104.35314941406,35.940093994141],[-104.34197998047,35.939544677734],[-104.3388671875,35.943237304688],[-104.35223388672,35.953643798828],[-104.34375,35.955322265625],[-104.33911132812,35.950134277344],[-104.32720947266,35.959930419922],[-104.35620117188,35.983825683594],[-104.34118652344,35.991668701172],[-104.33996582031,36.001098632812],[-104.34808349609,36.004425048828],[-104.3505859375,36.010498046875],[-104.36535644531,36.013366699219],[-104.36065673828,36.023071289062],[-104.36163330078,36.038848876953],[-104.36553955078,36.044006347656],[-104.37982177734,36.048522949219],[-104.37872314453,36.056823730469],[-104.37005615234,36.065612792969],[-104.37774658203,36.067443847656],[-104.38153076172,36.076202392578],[-104.39025878906,36.08203125],[-104.3857421875,36.088317871094],[-104.40032958984,36.090972900391],[-104.39758300781,36.099761962891],[-104.40270996094,36.116546630859],[-104.41442871094,36.122833251953],[-104.40948486328,36.131774902344],[-104.41833496094,36.136840820312],[-104.42053222656,36.142852783203],[-104.41418457031,36.146087646484],[-104.40875244141,36.139984130859],[-104.40325927734,36.153747558594],[-104.41876220703,36.165740966797],[-104.41418457031,36.175811767578],[-104.42425537109,36.184020996094],[-104.42785644531,36.183746337891],[-104.42822265625,36.176635742188],[-104.43621826172,36.177185058594],[-104.43218994141,36.188262939453],[-104.43908691406,36.195098876953],[-104.42687988281,36.196929931641],[-104.43402099609,36.201080322266],[-104.43060302734,36.213836669922],[-104.43634033203,36.218719482422],[-104.15222167969,36.21826171875]]]},"properties":{"_isDeleted":false,"AREA":"5.49376951214491E-01","PERIMETER":"4.02135848094802E+00","CO35_D00_":"9","CO35_D00_I":"8","STATE":"35","COUNTY":"021","NAME":"Harding","LSAD":"06","LSAD_TRANS":"County","CODE":"pbvs","CODE_ACC":"bmds","CODE_ABS":"bmds","CODE_EV":"pbvs","equipmentGroupLabel":"Dominion - Dominion ImageCast Evolution +","equipmentSystemName":"Dominion ImageCast Evolution +","equipmentType":"Optical Scan","equipmentVendor":"Dominion","jurisdictionCode":"NM-021","jurisdictionName":"Harding County","sourceGranularity":"county","standardSystem":"Hand marked paper ballots, BMDs for accessibility","accessibleSystem":"Ballot Marking Devices for all voters","absenteeSystem":"Hand-Fed Optical Scanners","pollBookSystem":"In-House Electronic Poll Book","tabulation":"Optical Scan","equipmentCodeMatched":true,"sourceDocumentId":"verified-voting-verifier-nm-2024-equipment","sourceUrl":"https://verifiedvoting.org/verifier/#mode/navigate/map/voteEquip/mapType/ppEquip/year/2024/state/35"}},{"type":"Feature","bbox":[-109.0458984375,34.958953857422,-107.30657958984,36.002655029297],"geometry":{"type":"Polygon","coordinates":[[[-108.88427734375,36.002655029297],[-107.62646484375,36.000274658203],[-107.30816650391,35.998687744141],[-107.30657958984,35.418548583984],[-107.30963134766,35.419006347656],[-107.30999755859,35.305206298828],[-107.62829589844,35.304748535156],[-107.62823486328,35.348327636719],[-107.73406982422,35.348327636719],[-107.73419189453,35.304931640625],[-107.98638916016,35.305206298828],[-108.46850585938,35.306793212891],[-108.46923828125,34.958953857422],[-109.04577636719,34.959686279297],[-109.0458984375,36.002288818359],[-108.88427734375,36.002655029297]]]},"properties":{"_isDeleted":false,"AREA":"1.40486785394349E+00","PERIMETER":"5.64765364602848E+00","CO35_D00_":"10","CO35_D00_I":"9","STATE":"35","COUNTY":"031","NAME":"McKinley","LSAD":"06","LSAD_TRANS":"County","CODE":"pbvs","CODE_ACC":"bmds","CODE_ABS":"bmds","CODE_EV":"pbvs","equipmentGroupLabel":"Dominion - Dominion ImageCast Evolution +","equipmentSystemName":"Dominion ImageCast Evolution +","equipmentType":"Optical Scan","equipmentVendor":"Dominion","jurisdictionCode":"NM-031","jurisdictionName":"McKinley County","sourceGranularity":"county","standardSystem":"Hand marked paper ballots, BMDs for accessibility","accessibleSystem":"Ballot Marking Devices for all voters","absenteeSystem":"Hand-Fed Optical Scanners","pollBookSystem":"In-House Electronic Poll Book","tabulation":"Optical Scan","equipmentCodeMatched":true,"sourceDocumentId":"verified-voting-verifier-nm-2024-equipment","sourceUrl":"https://verifiedvoting.org/verifier/#mode/navigate/map/voteEquip/mapType/ppEquip/year/2024/state/35"}},{"type":"Feature","bbox":[-106.24908447266,35.040069580078,-105.71447753906,36.002380371094],"geometry":{"type":"Polygon","coordinates":[[[-106.07135009766,36.002014160156],[-105.71667480469,36.002380371094],[-105.71734619141,35.978759765625],[-105.72027587891,35.870971679688],[-105.72082519531,35.733642578125],[-105.7158203125,35.653167724609],[-105.71447753906,35.041534423828],[-106.24395751953,35.040069580078],[-106.2451171875,35.215057373047],[-106.24578857422,35.304473876953],[-106.24908447266,35.304473876953],[-106.24816894531,35.755493164062],[-106.23980712891,35.764099121094],[-106.21820068359,35.770538330078],[-106.19769287109,35.787445068359],[-106.19348144531,35.803680419922],[-106.18017578125,35.808837890625],[-106.17816162109,35.820739746094],[-106.17156982422,35.828125],[-106.2255859375,35.82861328125],[-106.24816894531,35.839111328125],[-106.24835205078,35.855834960938],[-106.24542236328,35.930938720703],[-106.05407714844,35.930755615234],[-106.05407714844,35.985778808594],[-106.0576171875,35.986694335938],[-106.05596923828,35.989288330078],[-106.06610107422,35.989196777344],[-106.06481933594,35.996673583984],[-106.07135009766,36.002014160156]]]},"properties":{"_isDeleted":false,"AREA":"4.91749460671010E-01","PERIMETER":"3.14649634076213E+00","CO35_D00_":"11","CO35_D00_I":"10","STATE":"35","COUNTY":"049","NAME":"Santa Fe","LSAD":"06","LSAD_TRANS":"County","CODE":"pbvs","CODE_ACC":"bmds","CODE_ABS":"bmds","CODE_EV":"pbvs","equipmentGroupLabel":"Dominion - Dominion ImageCast Evolution +","equipmentSystemName":"Dominion ImageCast Evolution +","equipmentType":"Optical Scan","equipmentVendor":"Dominion","jurisdictionCode":"NM-049","jurisdictionName":"Santa Fe County","sourceGranularity":"county","standardSystem":"Hand marked paper ballots, BMDs for accessibility","accessibleSystem":"Ballot Marking Devices for all voters","absenteeSystem":"Batch-Fed Optical Scanners","pollBookSystem":"In-House Electronic Poll Book","tabulation":"Optical Scan","equipmentCodeMatched":true,"sourceDocumentId":"verified-voting-verifier-nm-2024-equipment","sourceUrl":"https://verifiedvoting.org/verifier/#mode/navigate/map/voteEquip/mapType/ppEquip/year/2024/state/35"}},{"type":"Feature","bbox":[-106.41864013672,35.754211425781,-106.17156982422,35.973419189453],"geometry":{"type":"Polygon","coordinates":[[[-106.24792480469,35.96630859375],[-106.24542236328,35.930938720703],[-106.24835205078,35.855834960938],[-106.27697753906,35.855194091797],[-106.24816894531,35.839111328125],[-106.2255859375,35.82861328125],[-106.17156982422,35.828125],[-106.17816162109,35.820739746094],[-106.18017578125,35.808837890625],[-106.19348144531,35.803680419922],[-106.19769287109,35.787445068359],[-106.21820068359,35.770538330078],[-106.23980712891,35.764099121094],[-106.24816894531,35.755493164062],[-106.25396728516,35.754211425781],[-106.25775146484,35.769622802734],[-106.28259277344,35.791870117188],[-106.35687255859,35.816223144531],[-106.35681152344,35.806457519531],[-106.37036132812,35.813079833984],[-106.38226318359,35.807922363281],[-106.40063476562,35.807556152344],[-106.41107177734,35.810882568359],[-106.41864013672,35.819183349609],[-106.41821289062,35.827667236328],[-106.39953613281,35.827575683594],[-106.39965820312,35.960021972656],[-106.38623046875,35.960113525391],[-106.38635253906,35.952545166016],[-106.31530761719,35.952453613281],[-106.31677246094,35.958557128906],[-106.30017089844,35.958465576172],[-106.30035400391,35.973419189453],[-106.26416015625,35.972747802734],[-106.26416015625,35.965454101562],[-106.24792480469,35.96630859375]]]},"properties":{"_isDeleted":false,"AREA":"2.82601265800011E-02","PERIMETER":"9.46494211825233E-01","CO35_D00_":"12","CO35_D00_I":"11","STATE":"35","COUNTY":"028","NAME":"Los Alamos","LSAD":"06","LSAD_TRANS":"County","CODE":"pbvs","CODE_ACC":"bmds","CODE_ABS":"bmds","CODE_EV":"pbvs","equipmentGroupLabel":"Dominion - Dominion ImageCast Evolution +","equipmentSystemName":"Dominion ImageCast Evolution +","equipmentType":"Optical Scan","equipmentVendor":"Dominion","jurisdictionCode":"NM-028","jurisdictionName":"Los Alamos County","sourceGranularity":"county","standardSystem":"Hand marked paper ballots, BMDs for accessibility","accessibleSystem":"Ballot Marking Devices for all voters","absenteeSystem":"Batch-Fed Optical Scanners","pollBookSystem":"In-House Electronic Poll Book","tabulation":"Optical Scan","equipmentCodeMatched":true,"sourceDocumentId":"verified-voting-verifier-nm-2024-equipment","sourceUrl":"https://verifiedvoting.org/verifier/#mode/navigate/map/voteEquip/mapType/ppEquip/year/2024/state/35"}},{"type":"Feature","bbox":[-105.72082519531,35.041534423828,-103.63696289062,35.870971679688],"geometry":{"type":"Polygon","coordinates":[[[-105.72027587891,35.870971679688],[-105.34777832031,35.870697021484],[-105.22399902344,35.837097167969],[-105.21929931641,35.829711914062],[-105.17602539062,35.825286865234],[-105.15991210938,35.819274902344],[-105.15008544922,35.809112548828],[-105.13830566406,35.811340332031],[-105.10913085938,35.806732177734],[-105.07110595703,35.781433105469],[-105.05780029297,35.780059814453],[-105.04205322266,35.767974853516],[-105.03503417969,35.76953125],[-105.03704833984,35.765106201172],[-105.025390625,35.754211425781],[-105.01849365234,35.769714355469],[-104.99871826172,35.772033691406],[-104.36730957031,35.781433105469],[-104.02130126953,35.781433105469],[-103.97680664062,35.801635742188],[-103.72454833984,35.422241210938],[-103.63714599609,35.421966552734],[-103.63708496094,35.3896484375],[-103.63696289062,35.240875244141],[-103.85748291016,35.2421875],[-103.85766601562,35.264068603516],[-104.12481689453,35.142150878906],[-104.12475585938,35.215606689453],[-104.25219726562,35.215881347656],[-105.29113769531,35.216339111328],[-105.29083251953,35.042083740234],[-105.71447753906,35.041534423828],[-105.7158203125,35.653167724609],[-105.72082519531,35.733642578125],[-105.72027587891,35.870971679688]]]},"properties":{"_isDeleted":false,"AREA":"1.21810456278349E+00","PERIMETER":"5.74426501010949E+00","CO35_D00_":"13","CO35_D00_I":"12","STATE":"35","COUNTY":"047","NAME":"San Miguel","LSAD":"06","LSAD_TRANS":"County","CODE":"pbvs","CODE_ACC":"bmds","CODE_ABS":"bmds","CODE_EV":"pbvs","equipmentGroupLabel":"Dominion - Dominion ImageCast Evolution +","equipmentSystemName":"Dominion ImageCast Evolution +","equipmentType":"Optical Scan","equipmentVendor":"Dominion","jurisdictionCode":"NM-047","jurisdictionName":"San Miguel County","sourceGranularity":"county","standardSystem":"Hand marked paper ballots, BMDs for accessibility","accessibleSystem":"Ballot Marking Devices for all voters","absenteeSystem":"Hand-Fed Optical Scanners","pollBookSystem":"Commercial Electronic Poll Book","tabulation":"Optical Scan","equipmentCodeMatched":true,"sourceDocumentId":"verified-voting-verifier-nm-2024-equipment","sourceUrl":"https://verifiedvoting.org/verifier/#mode/navigate/map/voteEquip/mapType/ppEquip/year/2024/state/35"}},{"type":"Feature","bbox":[-106.27697753906,35.839111328125,-106.24816894531,35.855834960938],"geometry":{"type":"Polygon","coordinates":[[[-106.24816894531,35.839111328125],[-106.27697753906,35.855194091797],[-106.24835205078,35.855834960938],[-106.24816894531,35.839111328125]]]},"properties":{"_isDeleted":false,"AREA":"2.05985819499988E-04","PERIMETER":"8.23505491365567E-02","CO35_D00_":"14","CO35_D00_I":"13","STATE":"35","COUNTY":"043","NAME":"Sandoval","LSAD":"06","LSAD_TRANS":"County","CODE":"pbvs","CODE_ACC":"bmds","CODE_ABS":"bmds","CODE_EV":"pbvs","equipmentGroupLabel":"Dominion - Dominion ImageCast Evolution +","equipmentSystemName":"Dominion ImageCast Evolution +","equipmentType":"Optical Scan","equipmentVendor":"Dominion","jurisdictionCode":"NM-043","jurisdictionName":"Sandoval County","sourceGranularity":"county","standardSystem":"Hand marked paper ballots, BMDs for accessibility","accessibleSystem":"Ballot Marking Devices for all voters","absenteeSystem":"Batch-Fed Optical Scanners","pollBookSystem":"In-House Electronic Poll Book","tabulation":"Optical Scan","equipmentCodeMatched":true,"sourceDocumentId":"verified-voting-verifier-nm-2024-equipment","sourceUrl":"https://verifiedvoting.org/verifier/#mode/navigate/map/voteEquip/mapType/ppEquip/year/2024/state/35"}},{"type":"Feature","bbox":[-104.12933349609,34.604553222656,-103.04125976562,35.740081787109],"geometry":{"type":"Polygon","coordinates":[[[-103.26800537109,35.740081787109],[-103.04125976562,35.7392578125],[-103.04254150391,34.954040527344],[-103.28289794922,34.954315185547],[-103.28399658203,34.864898681641],[-103.38934326172,34.865264892578],[-103.39019775391,34.778228759766],[-103.49530029297,34.778686523438],[-103.49578857422,34.691467285156],[-103.70556640625,34.692413330078],[-103.70642089844,34.604553222656],[-103.73822021484,34.604644775391],[-103.74157714844,34.604919433594],[-103.94885253906,34.605010986328],[-104.12878417969,34.605194091797],[-104.12933349609,34.779327392578],[-104.12481689453,35.142150878906],[-103.85766601562,35.264068603516],[-103.85748291016,35.2421875],[-103.63696289062,35.240875244141],[-103.63708496094,35.3896484375],[-103.39031982422,35.389953613281],[-103.3798828125,35.397979736328],[-103.37933349609,35.652404785156],[-103.37524414062,35.652404785156],[-103.375,35.739990234375],[-103.26800537109,35.740081787109]]]},"properties":{"_isDeleted":false,"AREA":"7.37943398505549E-01","PERIMETER":"4.38577574855669E+00","CO35_D00_":"15","CO35_D00_I":"14","STATE":"35","COUNTY":"037","NAME":"Quay","LSAD":"06","LSAD_TRANS":"County","CODE":"pbvs","CODE_ACC":"bmds","CODE_ABS":"bmds","CODE_EV":"pbvs","equipmentGroupLabel":"Dominion - Dominion ImageCast Evolution +","equipmentSystemName":"Dominion ImageCast Evolution +","equipmentType":"Optical Scan","equipmentVendor":"Dominion","jurisdictionCode":"NM-037","jurisdictionName":"Quay County","sourceGranularity":"county","standardSystem":"Hand marked paper ballots, BMDs for accessibility","accessibleSystem":"Ballot Marking Devices for all voters","absenteeSystem":"Hand-Fed Optical Scanners","pollBookSystem":"In-House Electronic Poll Book","tabulation":"Optical Scan","equipmentCodeMatched":true,"sourceDocumentId":"verified-voting-verifier-nm-2024-equipment","sourceUrl":"https://verifiedvoting.org/verifier/#mode/navigate/map/voteEquip/mapType/ppEquip/year/2024/state/35"}},{"type":"Feature","bbox":[-109.04608154297,34.578063964844,-107.06665039062,35.348327636719],"geometry":{"type":"Polygon","coordinates":[[[-107.98638916016,35.305206298828],[-107.73419189453,35.304931640625],[-107.73406982422,35.348327636719],[-107.62823486328,35.348327636719],[-107.62829589844,35.304748535156],[-107.30999755859,35.305206298828],[-107.23913574219,35.305297851562],[-107.19610595703,35.219299316406],[-107.06665039062,34.957183837891],[-107.19787597656,34.9580078125],[-107.20281982422,34.956359863281],[-107.20440673828,34.578796386719],[-107.53637695312,34.580352783203],[-107.72485351562,34.578063964844],[-108.09417724609,34.580993652344],[-109.04608154297,34.579254150391],[-109.04577636719,34.959686279297],[-108.46923828125,34.958953857422],[-108.46850585938,35.306793212891],[-107.98638916016,35.305206298828]]]},"properties":{"_isDeleted":false,"AREA":"1.16024812445756E+00","PERIMETER":"5.36765624284115E+00","CO35_D00_":"16","CO35_D00_I":"15","STATE":"35","COUNTY":"006","NAME":"Cibola","LSAD":"06","LSAD_TRANS":"County","CODE":"pbvs","CODE_ACC":"bmds","CODE_ABS":"bmds","CODE_EV":"pbvs","equipmentGroupLabel":"Dominion - Dominion ImageCast Evolution +","equipmentSystemName":"Dominion ImageCast Evolution +","equipmentType":"Optical Scan","equipmentVendor":"Dominion","jurisdictionCode":"NM-006","jurisdictionName":"Cibola County","sourceGranularity":"county","standardSystem":"Hand marked paper ballots, BMDs for accessibility","accessibleSystem":"Ballot Marking Devices for all voters","absenteeSystem":"Batch-Fed Optical Scanners","pollBookSystem":"In-House Electronic Poll Book","tabulation":"Optical Scan","equipmentCodeMatched":true,"sourceDocumentId":"verified-voting-verifier-nm-2024-equipment","sourceUrl":"https://verifiedvoting.org/verifier/#mode/navigate/map/voteEquip/mapType/ppEquip/year/2024/state/35"}},{"type":"Feature","bbox":[-107.19610595703,34.870056152344,-106.14953613281,35.219299316406],"geometry":{"type":"Polygon","coordinates":[[[-107.19610595703,35.219299316406],[-106.2451171875,35.215057373047],[-106.24395751953,35.040069580078],[-106.24383544922,34.953308105469],[-106.15008544922,34.953399658203],[-106.14953613281,34.870147705078],[-106.41101074219,34.870239257812],[-106.41101074219,34.889434814453],[-106.41778564453,34.892028808594],[-106.42333984375,34.901428222656],[-106.43200683594,34.903289794922],[-106.66162109375,34.906524658203],[-106.68621826172,34.905975341797],[-106.70501708984,34.881866455078],[-106.71368408203,34.880401611328],[-106.72052001953,34.870056152344],[-107.0244140625,34.870239257812],[-107.06665039062,34.957183837891],[-107.19610595703,35.219299316406]]]},"properties":{"_isDeleted":false,"AREA":"2.99022319449511E-01","PERIMETER":"2.69990381908493E+00","CO35_D00_":"17","CO35_D00_I":"16","STATE":"35","COUNTY":"001","NAME":"Bernalillo","LSAD":"06","LSAD_TRANS":"County","CODE":"pbvs","CODE_ACC":"bmds","CODE_ABS":"bmds","CODE_EV":"pbvs","equipmentGroupLabel":"Dominion - Dominion ImageCast Evolution +","equipmentSystemName":"Dominion ImageCast Evolution +","equipmentType":"Optical Scan","equipmentVendor":"Dominion","jurisdictionCode":"NM-001","jurisdictionName":"Bernalillo County","sourceGranularity":"county","standardSystem":"Hand marked paper ballots, BMDs for accessibility","accessibleSystem":"Ballot Marking Devices for all voters","absenteeSystem":"Batch-Fed Optical Scanners","pollBookSystem":"In-House Electronic Poll Book","tabulation":"Optical Scan","equipmentCodeMatched":true,"sourceDocumentId":"verified-voting-verifier-nm-2024-equipment","sourceUrl":"https://verifiedvoting.org/verifier/#mode/navigate/map/voteEquip/mapType/ppEquip/year/2024/state/35"}},{"type":"Feature","bbox":[-105.31292724609,34.3466796875,-104.12475585938,35.216339111328],"geometry":{"type":"Polygon","coordinates":[[[-104.25219726562,35.215881347656],[-104.12475585938,35.215606689453],[-104.12481689453,35.142150878906],[-104.12933349609,34.779327392578],[-104.33990478516,34.778961181641],[-104.33972167969,34.692230224609],[-104.44488525391,34.691650390625],[-104.44488525391,34.604827880859],[-104.89196777344,34.604461669922],[-104.89178466797,34.346954345703],[-104.89215087891,34.346954345703],[-105.31292724609,34.3466796875],[-105.31262207031,34.607025146484],[-105.29010009766,34.607391357422],[-105.29083251953,35.042083740234],[-105.29113769531,35.216339111328],[-104.25219726562,35.215881347656]]]},"properties":{"_isDeleted":false,"AREA":"7.73990848683002E-01","PERIMETER":"4.11424282116787E+00","CO35_D00_":"18","CO35_D00_I":"17","STATE":"35","COUNTY":"019","NAME":"Guadalupe","LSAD":"06","LSAD_TRANS":"County","CODE":"pbvs","CODE_ACC":"bmds","CODE_ABS":"bmds","CODE_EV":"pbvs","equipmentGroupLabel":"Dominion - Dominion ImageCast Evolution +","equipmentSystemName":"Dominion ImageCast Evolution +","equipmentType":"Optical Scan","equipmentVendor":"Dominion","jurisdictionCode":"NM-019","jurisdictionName":"Guadalupe County","sourceGranularity":"county","standardSystem":"Hand marked paper ballots, BMDs for accessibility","accessibleSystem":"Ballot Marking Devices for all voters","absenteeSystem":"Hand-Fed Optical Scanners","pollBookSystem":"Commercial Electronic Poll Book","tabulation":"Optical Scan","equipmentCodeMatched":true,"sourceDocumentId":"verified-voting-verifier-nm-2024-equipment","sourceUrl":"https://verifiedvoting.org/verifier/#mode/navigate/map/voteEquip/mapType/ppEquip/year/2024/state/35"}},{"type":"Feature","bbox":[-106.47106933594,34.259735107422,-105.29010009766,35.042083740234],"geometry":{"type":"Polygon","coordinates":[[[-105.29083251953,35.042083740234],[-105.29010009766,34.607391357422],[-105.31262207031,34.607025146484],[-105.31292724609,34.3466796875],[-105.31317138672,34.260009765625],[-105.92395019531,34.260009765625],[-106.41589355469,34.259735107422],[-106.4169921875,34.439788818359],[-106.41741943359,34.521667480469],[-106.46997070312,34.521118164062],[-106.47106933594,34.60888671875],[-106.46508789062,34.608978271484],[-106.46417236328,34.867004394531],[-106.46026611328,34.870147705078],[-106.41101074219,34.870239257812],[-106.14953613281,34.870147705078],[-106.15008544922,34.953399658203],[-106.24383544922,34.953308105469],[-106.24395751953,35.040069580078],[-105.71447753906,35.041534423828],[-105.29083251953,35.042083740234]]]},"properties":{"_isDeleted":false,"AREA":"8.52021134001019E-01","PERIMETER":"4.10699334891999E+00","CO35_D00_":"19","CO35_D00_I":"18","STATE":"35","COUNTY":"057","NAME":"Torrance","LSAD":"06","LSAD_TRANS":"County","CODE":"pbvs","CODE_ACC":"bmds","CODE_ABS":"bmds","CODE_EV":"pbvs","equipmentGroupLabel":"Dominion - Dominion ImageCast Evolution +","equipmentSystemName":"Dominion ImageCast Evolution +","equipmentType":"Optical Scan","equipmentVendor":"Dominion","jurisdictionCode":"NM-057","jurisdictionName":"Torrance County","sourceGranularity":"county","standardSystem":"Hand marked paper ballots, BMDs for accessibility","accessibleSystem":"Ballot Marking Devices for all voters","absenteeSystem":"Hand-Fed Optical Scanners","pollBookSystem":"Commercial Electronic Poll Book","tabulation":"Optical Scan","equipmentCodeMatched":true,"sourceDocumentId":"verified-voting-verifier-nm-2024-equipment","sourceUrl":"https://verifiedvoting.org/verifier/#mode/navigate/map/voteEquip/mapType/ppEquip/year/2024/state/35"}},{"type":"Feature","bbox":[-107.20440673828,34.436950683594,-106.41101074219,34.9580078125],"geometry":{"type":"Polygon","coordinates":[[[-107.19787597656,34.9580078125],[-107.06665039062,34.957183837891],[-107.0244140625,34.870239257812],[-106.72052001953,34.870056152344],[-106.71368408203,34.880401611328],[-106.70501708984,34.881866455078],[-106.68621826172,34.905975341797],[-106.66162109375,34.906524658203],[-106.43200683594,34.903289794922],[-106.42333984375,34.901428222656],[-106.41778564453,34.892028808594],[-106.41101074219,34.889434814453],[-106.41101074219,34.870239257812],[-106.46026611328,34.870147705078],[-106.46417236328,34.867004394531],[-106.46508789062,34.608978271484],[-106.47106933594,34.60888671875],[-106.46997070312,34.521118164062],[-106.41741943359,34.521667480469],[-106.4169921875,34.439788818359],[-106.45629882812,34.436950683594],[-106.50457763672,34.456970214844],[-106.76824951172,34.53125],[-106.88250732422,34.579437255859],[-107.20440673828,34.578796386719],[-107.20281982422,34.956359863281],[-107.19787597656,34.9580078125]]]},"properties":{"_isDeleted":false,"AREA":"2.72284386246996E-01","PERIMETER":"2.62172897328177E+00","CO35_D00_":"20","CO35_D00_I":"19","STATE":"35","COUNTY":"061","NAME":"Valencia","LSAD":"06","LSAD_TRANS":"County","CODE":"pbvs","CODE_ACC":"bmds","CODE_ABS":"bmds","CODE_EV":"pbvs","equipmentGroupLabel":"Dominion - Dominion ImageCast Evolution +","equipmentSystemName":"Dominion ImageCast Evolution +","equipmentType":"Optical Scan","equipmentVendor":"Dominion","jurisdictionCode":"NM-061","jurisdictionName":"Valencia County","sourceGranularity":"county","standardSystem":"Hand marked paper ballots, BMDs for accessibility","accessibleSystem":"Ballot Marking Devices for all voters","absenteeSystem":"Batch-Fed Optical Scanners","pollBookSystem":"In-House Electronic Poll Book","tabulation":"Optical Scan","equipmentCodeMatched":true,"sourceDocumentId":"verified-voting-verifier-nm-2024-equipment","sourceUrl":"https://verifiedvoting.org/verifier/#mode/navigate/map/voteEquip/mapType/ppEquip/year/2024/state/35"}},{"type":"Feature","bbox":[-103.73999023438,34.302551269531,-103.04254150391,34.954315185547],"geometry":{"type":"Polygon","coordinates":[[[-103.28289794922,34.954315185547],[-103.04254150391,34.954040527344],[-103.0439453125,34.302551269531],[-103.73999023438,34.303039550781],[-103.73822021484,34.604644775391],[-103.70642089844,34.604553222656],[-103.70556640625,34.692413330078],[-103.49578857422,34.691467285156],[-103.49530029297,34.778686523438],[-103.39019775391,34.778228759766],[-103.38934326172,34.865264892578],[-103.28399658203,34.864898681641],[-103.28289794922,34.954315185547]]]},"properties":{"_isDeleted":false,"AREA":"3.58201399570994E-01","PERIMETER":"2.69318977652347E+00","CO35_D00_":"21","CO35_D00_I":"20","STATE":"35","COUNTY":"009","NAME":"Curry","LSAD":"06","LSAD_TRANS":"County","CODE":"pbvs","CODE_ACC":"bmds","CODE_ABS":"bmds","CODE_EV":"pbvs","equipmentGroupLabel":"Dominion - Dominion ImageCast Evolution +","equipmentSystemName":"Dominion ImageCast Evolution +","equipmentType":"Optical Scan","equipmentVendor":"Dominion","jurisdictionCode":"NM-009","jurisdictionName":"Curry County","sourceGranularity":"county","standardSystem":"Hand marked paper ballots, BMDs for accessibility","accessibleSystem":"Ballot Marking Devices for all voters","absenteeSystem":"Hand-Fed Optical Scanners","pollBookSystem":"In-House Electronic Poll Book","tabulation":"Optical Scan","equipmentCodeMatched":true,"sourceDocumentId":"verified-voting-verifier-nm-2024-equipment","sourceUrl":"https://verifiedvoting.org/verifier/#mode/navigate/map/voteEquip/mapType/ppEquip/year/2024/state/35"}},{"type":"Feature","bbox":[-104.89306640625,33.995422363281,-103.94586181641,34.779327392578],"geometry":{"type":"Polygon","coordinates":[[[-104.12933349609,34.779327392578],[-104.12878417969,34.605194091797],[-103.94885253906,34.605010986328],[-103.94958496094,34.259826660156],[-103.94604492188,34.259826660156],[-103.94586181641,34.082733154297],[-104.15582275391,34.083282470703],[-104.15618896484,33.995422363281],[-104.37548828125,33.995788574219],[-104.78594970703,34.000030517578],[-104.78619384766,34.087799072266],[-104.84307861328,34.088439941406],[-104.89306640625,34.088256835938],[-104.89178466797,34.346954345703],[-104.89196777344,34.604461669922],[-104.44488525391,34.604827880859],[-104.44488525391,34.691650390625],[-104.33972167969,34.692230224609],[-104.33990478516,34.778961181641],[-104.12933349609,34.779327392578]]]},"properties":{"_isDeleted":false,"AREA":"5.92240955846005E-01","PERIMETER":"3.45471931741534E+00","CO35_D00_":"22","CO35_D00_I":"21","STATE":"35","COUNTY":"011","NAME":"De Baca","LSAD":"06","LSAD_TRANS":"County","CODE":"pbvs","CODE_ACC":"bmds","CODE_ABS":"bmds","CODE_EV":"pbvs","equipmentGroupLabel":"Dominion - Dominion ImageCast Evolution +","equipmentSystemName":"Dominion ImageCast Evolution +","equipmentType":"Optical Scan","equipmentVendor":"Dominion","jurisdictionCode":"NM-011","jurisdictionName":"DeBaca County","sourceGranularity":"county","standardSystem":"Hand marked paper ballots, BMDs for accessibility","accessibleSystem":"Ballot Marking Devices for all voters","absenteeSystem":"Hand-Fed Optical Scanners","pollBookSystem":"In-House Electronic Poll Book","tabulation":"Optical Scan","equipmentCodeMatched":true,"sourceDocumentId":"verified-voting-verifier-nm-2024-equipment","sourceUrl":"https://verifiedvoting.org/verifier/#mode/navigate/map/voteEquip/mapType/ppEquip/year/2024/state/35"}},{"type":"Feature","bbox":[-103.94958496094,33.570220947266,-103.0439453125,34.605010986328],"geometry":{"type":"Polygon","coordinates":[[[-103.74157714844,34.604919433594],[-103.73822021484,34.604644775391],[-103.73999023438,34.303039550781],[-103.0439453125,34.302551269531],[-103.0439453125,33.974639892578],[-103.05261230469,33.570617675781],[-103.51025390625,33.570220947266],[-103.50970458984,33.657165527344],[-103.71820068359,33.656158447266],[-103.71673583984,33.8193359375],[-103.84185791016,33.819244384766],[-103.84161376953,34.081634521484],[-103.94586181641,34.082733154297],[-103.94604492188,34.259826660156],[-103.94958496094,34.259826660156],[-103.94885253906,34.605010986328],[-103.74157714844,34.604919433594]]]},"properties":{"_isDeleted":false,"AREA":"6.20608218970510E-01","PERIMETER":"3.87460409834532E+00","CO35_D00_":"23","CO35_D00_I":"22","STATE":"35","COUNTY":"041","NAME":"Roosevelt","LSAD":"06","LSAD_TRANS":"County","CODE":"pbvs","CODE_ACC":"bmds","CODE_ABS":"bmds","CODE_EV":"pbvs","equipmentGroupLabel":"Dominion - Dominion ImageCast Evolution +","equipmentSystemName":"Dominion ImageCast Evolution +","equipmentType":"Optical Scan","equipmentVendor":"Dominion","jurisdictionCode":"NM-041","jurisdictionName":"Roosevelt County","sourceGranularity":"county","standardSystem":"Hand marked paper ballots, BMDs for accessibility","accessibleSystem":"Ballot Marking Devices for all voters","absenteeSystem":"Hand-Fed Optical Scanners","pollBookSystem":"Commercial Electronic Poll Book","tabulation":"Optical Scan","equipmentCodeMatched":true,"sourceDocumentId":"verified-voting-verifier-nm-2024-equipment","sourceUrl":"https://verifiedvoting.org/verifier/#mode/navigate/map/voteEquip/mapType/ppEquip/year/2024/state/35"}},{"type":"Feature","bbox":[-109.04718017578,33.200988769531,-107.71130371094,34.580993652344],"geometry":{"type":"Polygon","coordinates":[[[-108.09417724609,34.580993652344],[-107.72485351562,34.578063964844],[-107.72540283203,34.259735107422],[-107.71624755859,34.259826660156],[-107.71636962891,33.875061035156],[-107.71551513672,33.825592041016],[-107.71130371094,33.825500488281],[-107.71264648438,33.476837158203],[-107.93896484375,33.474334716797],[-108.00061035156,33.47802734375],[-108.00061035156,33.201538085938],[-108.18225097656,33.201080322266],[-108.44995117188,33.200988769531],[-108.54345703125,33.207794189453],[-108.64654541016,33.209289550781],[-109.04718017578,33.208923339844],[-109.04608154297,34.579254150391],[-108.09417724609,34.580993652344]]]},"properties":{"_isDeleted":false,"AREA":"1.74964667906651E+00","PERIMETER":"5.42103077389101E+00","CO35_D00_":"24","CO35_D00_I":"23","STATE":"35","COUNTY":"003","NAME":"Catron","LSAD":"06","LSAD_TRANS":"County","CODE":"pbvs","CODE_ACC":"bmds","CODE_ABS":"bmds","CODE_EV":"pbvs","equipmentGroupLabel":"Dominion - Dominion ImageCast Evolution +","equipmentSystemName":"Dominion ImageCast Evolution +","equipmentType":"Optical Scan","equipmentVendor":"Dominion","jurisdictionCode":"NM-003","jurisdictionName":"Catron County","sourceGranularity":"county","standardSystem":"Hand marked paper ballots, BMDs for accessibility","accessibleSystem":"Ballot Marking Devices for all voters","absenteeSystem":"Hand-Fed Optical Scanners","pollBookSystem":"In-House Electronic Poll Book","tabulation":"Optical Scan","equipmentCodeMatched":true,"sourceDocumentId":"verified-voting-verifier-nm-2024-equipment","sourceUrl":"https://verifiedvoting.org/verifier/#mode/navigate/map/voteEquip/mapType/ppEquip/year/2024/state/35"}},{"type":"Feature","bbox":[-107.72540283203,33.475189208984,-105.92395019531,34.580352783203],"geometry":{"type":"Polygon","coordinates":[[[-107.53637695312,34.580352783203],[-107.20440673828,34.578796386719],[-106.88250732422,34.579437255859],[-106.76824951172,34.53125],[-106.50457763672,34.456970214844],[-106.45629882812,34.436950683594],[-106.4169921875,34.439788818359],[-106.41589355469,34.259735107422],[-105.92395019531,34.260009765625],[-105.92462158203,33.825500488281],[-106.05279541016,33.825866699219],[-106.05279541016,33.650238037109],[-106.15856933594,33.650146484375],[-106.26849365234,33.660308837891],[-106.37390136719,33.660400390625],[-106.373046875,33.480072021484],[-106.62554931641,33.475189208984],[-107.12237548828,33.478118896484],[-107.71264648438,33.476837158203],[-107.71130371094,33.825500488281],[-107.71551513672,33.825592041016],[-107.71636962891,33.875061035156],[-107.71624755859,34.259826660156],[-107.72540283203,34.259735107422],[-107.72485351562,34.578063964844],[-107.53637695312,34.580352783203]]]},"properties":{"_isDeleted":false,"AREA":"1.68066916485501E+00","PERIMETER":"5.70528947183176E+00","CO35_D00_":"25","CO35_D00_I":"24","STATE":"35","COUNTY":"053","NAME":"Socorro","LSAD":"06","LSAD_TRANS":"County","CODE":"pbvs","CODE_ACC":"bmds","CODE_ABS":"bmds","CODE_EV":"pbvs","equipmentGroupLabel":"Dominion - Dominion ImageCast Evolution +","equipmentSystemName":"Dominion ImageCast Evolution +","equipmentType":"Optical Scan","equipmentVendor":"Dominion","jurisdictionCode":"NM-053","jurisdictionName":"Socorro County","sourceGranularity":"county","standardSystem":"Hand marked paper ballots, BMDs for accessibility","accessibleSystem":"Ballot Marking Devices for all voters","absenteeSystem":"Hand-Fed Optical Scanners","pollBookSystem":"In-House Electronic Poll Book","tabulation":"Optical Scan","equipmentCodeMatched":true,"sourceDocumentId":"verified-voting-verifier-nm-2024-equipment","sourceUrl":"https://verifiedvoting.org/verifier/#mode/navigate/map/voteEquip/mapType/ppEquip/year/2024/state/35"}},{"type":"Feature","bbox":[-106.37390136719,33.132049560547,-104.88513183594,34.346954345703],"geometry":{"type":"Polygon","coordinates":[[[-104.89215087891,34.346954345703],[-104.89178466797,34.346954345703],[-104.89306640625,34.088256835938],[-104.89233398438,33.397644042969],[-104.88513183594,33.393310546875],[-104.88513183594,33.306274414062],[-104.90374755859,33.306182861328],[-104.90570068359,33.138580322266],[-104.99780273438,33.139129638672],[-105.00677490234,33.138580322266],[-105.00677490234,33.133880615234],[-105.10955810547,33.132049560547],[-105.31689453125,33.132232666016],[-105.31896972656,33.305084228516],[-105.72589111328,33.304809570312],[-105.72729492188,33.390533447266],[-105.89794921875,33.390075683594],[-106.34582519531,33.390808105469],[-106.37219238281,33.390899658203],[-106.373046875,33.480072021484],[-106.37390136719,33.660400390625],[-106.26849365234,33.660308837891],[-106.15856933594,33.650146484375],[-106.05279541016,33.650238037109],[-106.05279541016,33.825866699219],[-105.92462158203,33.825500488281],[-105.92395019531,34.260009765625],[-105.31317138672,34.260009765625],[-105.31292724609,34.3466796875],[-104.89215087891,34.346954345703]]]},"properties":{"_isDeleted":false,"AREA":"1.21748505384699E+00","PERIMETER":"5.41029981233600E+00","CO35_D00_":"26","CO35_D00_I":"25","STATE":"35","COUNTY":"027","NAME":"Lincoln","LSAD":"06","LSAD_TRANS":"County","CODE":"pbvs","CODE_ACC":"bmds","CODE_ABS":"bmds","CODE_EV":"pbvs","equipmentGroupLabel":"Dominion - Dominion ImageCast Evolution +","equipmentSystemName":"Dominion ImageCast Evolution +","equipmentType":"Optical Scan","equipmentVendor":"Dominion","jurisdictionCode":"NM-027","jurisdictionName":"Lincoln County","sourceGranularity":"county","standardSystem":"Hand marked paper ballots, BMDs for accessibility","accessibleSystem":"Ballot Marking Devices for all voters","absenteeSystem":"Hand-Fed Optical Scanners","pollBookSystem":"In-House Electronic Poll Book","tabulation":"Optical Scan","equipmentCodeMatched":true,"sourceDocumentId":"verified-voting-verifier-nm-2024-equipment","sourceUrl":"https://verifiedvoting.org/verifier/#mode/navigate/map/voteEquip/mapType/ppEquip/year/2024/state/35"}},{"type":"Feature","bbox":[-105.35388183594,32.518768310547,-103.50970458984,34.088439941406],"geometry":{"type":"Polygon","coordinates":[[[-104.84307861328,34.088439941406],[-104.78619384766,34.087799072266],[-104.78594970703,34.000030517578],[-104.37548828125,33.995788574219],[-104.15618896484,33.995422363281],[-104.15582275391,34.083282470703],[-103.94586181641,34.082733154297],[-103.84161376953,34.081634521484],[-103.84185791016,33.819244384766],[-103.71673583984,33.8193359375],[-103.71820068359,33.656158447266],[-103.50970458984,33.657165527344],[-103.51025390625,33.570220947266],[-103.720703125,33.569671630859],[-103.72131347656,33.395904541016],[-103.76635742188,33.395446777344],[-103.76629638672,32.965179443359],[-103.81457519531,32.965179443359],[-104.029296875,32.965362548828],[-104.84118652344,32.963317871094],[-104.84204101562,32.520690917969],[-104.85144042969,32.5205078125],[-105.35388183594,32.518768310547],[-105.35247802734,32.961944580078],[-105.31616210938,32.962036132812],[-105.31689453125,33.132232666016],[-105.10955810547,33.132049560547],[-105.00677490234,33.133880615234],[-105.00677490234,33.138580322266],[-104.99780273438,33.139129638672],[-104.90570068359,33.138580322266],[-104.90374755859,33.306182861328],[-104.88513183594,33.306274414062],[-104.88513183594,33.393310546875],[-104.89233398438,33.397644042969],[-104.89306640625,34.088256835938],[-104.84307861328,34.088439941406]]]},"properties":{"_isDeleted":false,"AREA":"1.52435374898501E+00","PERIMETER":"7.00649401478106E+00","CO35_D00_":"27","CO35_D00_I":"26","STATE":"35","COUNTY":"005","NAME":"Chaves","LSAD":"06","LSAD_TRANS":"County","CODE":"pbvs","CODE_ACC":"bmds","CODE_ABS":"bmds","CODE_EV":"pbvs","equipmentGroupLabel":"Dominion - Dominion ImageCast Evolution +","equipmentSystemName":"Dominion ImageCast Evolution +","equipmentType":"Optical Scan","equipmentVendor":"Dominion","jurisdictionCode":"NM-005","jurisdictionName":"Chaves County","sourceGranularity":"county","standardSystem":"Hand marked paper ballots, BMDs for accessibility","accessibleSystem":"Ballot Marking Devices for all voters","absenteeSystem":"Hand-Fed Optical Scanners","pollBookSystem":"In-House Electronic Poll Book","tabulation":"Optical Scan","equipmentCodeMatched":true,"sourceDocumentId":"verified-voting-verifier-nm-2024-equipment","sourceUrl":"https://verifiedvoting.org/verifier/#mode/navigate/map/voteEquip/mapType/ppEquip/year/2024/state/35"}},{"type":"Feature","bbox":[-103.81457519531,32.000183105469,-103.05261230469,33.570617675781],"geometry":{"type":"Polygon","coordinates":[[[-103.72283935547,32.000183105469],[-103.72290039062,32.522552490234],[-103.81390380859,32.5224609375],[-103.81457519531,32.965179443359],[-103.76629638672,32.965179443359],[-103.76635742188,33.395446777344],[-103.72131347656,33.395904541016],[-103.720703125,33.569671630859],[-103.51025390625,33.570220947266],[-103.05261230469,33.570617675781],[-103.06457519531,32.999877929688],[-103.06439208984,32.000549316406],[-103.72283935547,32.000183105469]]]},"properties":{"_isDeleted":false,"AREA":"1.09560113084914E+00","PERIMETER":"4.65071620013769E+00","CO35_D00_":"28","CO35_D00_I":"27","STATE":"35","COUNTY":"025","NAME":"Lea","LSAD":"06","LSAD_TRANS":"County","CODE":"pbvs","CODE_ACC":"bmds","CODE_ABS":"bmds","CODE_EV":"pbvs","equipmentGroupLabel":"Dominion - Dominion ImageCast Evolution +","equipmentSystemName":"Dominion ImageCast Evolution +","equipmentType":"Optical Scan","equipmentVendor":"Dominion","jurisdictionCode":"NM-025","jurisdictionName":"Lea County","sourceGranularity":"county","standardSystem":"Hand marked paper ballots, BMDs for accessibility","accessibleSystem":"Ballot Marking Devices for all voters","absenteeSystem":"Hand-Fed Optical Scanners","pollBookSystem":"In-House Electronic Poll Book","tabulation":"Optical Scan","equipmentCodeMatched":true,"sourceDocumentId":"verified-voting-verifier-nm-2024-equipment","sourceUrl":"https://verifiedvoting.org/verifier/#mode/navigate/map/voteEquip/mapType/ppEquip/year/2024/state/35"}},{"type":"Feature","bbox":[-108.00061035156,32.605316162109,-106.34045410156,33.480072021484],"geometry":{"type":"Polygon","coordinates":[[[-107.12237548828,33.478118896484],[-106.62554931641,33.475189208984],[-106.373046875,33.480072021484],[-106.37219238281,33.390899658203],[-106.34582519531,33.390808105469],[-106.34045410156,33.052764892578],[-106.88787841797,32.822875976562],[-106.8876953125,32.779296875],[-107.29937744141,32.780029296875],[-107.29949951172,32.605529785156],[-107.60827636719,32.605316162109],[-107.71710205078,32.622589111328],[-107.73529052734,32.629333496094],[-107.72412109375,32.667449951172],[-107.72741699219,32.692077636719],[-107.71960449219,32.697448730469],[-107.72039794922,32.714233398438],[-107.71527099609,32.721527099609],[-107.72283935547,32.736114501953],[-107.71765136719,32.755401611328],[-107.71942138672,32.772186279297],[-107.72180175781,32.778747558594],[-107.73571777344,32.783538818359],[-107.74212646484,32.790283203125],[-107.74951171875,32.806793212891],[-107.74597167969,32.823059082031],[-107.74969482422,32.831451416016],[-107.75836181641,32.846038818359],[-107.77368164062,32.855621337891],[-107.77825927734,32.896423339844],[-107.76507568359,32.915161132812],[-107.77569580078,32.930847167969],[-107.77569580078,32.9375],[-107.77032470703,32.940887451172],[-107.77600097656,32.952331542969],[-107.79174804688,32.948089599609],[-107.80383300781,32.959075927734],[-107.81439208984,32.95751953125],[-107.82977294922,32.9638671875],[-107.83081054688,32.973205566406],[-107.83825683594,32.974578857422],[-107.841796875,32.987426757812],[-107.85662841797,33.002563476562],[-107.85461425781,33.006896972656],[-107.84820556641,33.007263183594],[-107.84600830078,33.015747070312],[-107.84814453125,33.0263671875],[-107.8564453125,33.036529541016],[-107.85516357422,33.041137695312],[-107.85052490234,33.0546875],[-107.83337402344,33.073974609375],[-107.83648681641,33.080261230469],[-107.84545898438,33.084228515625],[-107.84204101562,33.095764160156],[-107.85070800781,33.1201171875],[-107.84558105469,33.130920410156],[-107.85211181641,33.139221191406],[-107.85662841797,33.161468505859],[-107.85314941406,33.1708984375],[-107.84124755859,33.173950195312],[-107.84313964844,33.184448242188],[-107.85522460938,33.191009521484],[-107.86053466797,33.187774658203],[-107.85821533203,33.200897216797],[-107.86236572266,33.198486328125],[-107.86633300781,33.201995849609],[-108.00061035156,33.201538085938],[-108.00061035156,33.47802734375],[-107.93896484375,33.474334716797],[-107.71264648438,33.476837158203],[-107.12237548828,33.478118896484]]]},"properties":{"_isDeleted":false,"AREA":"1.06024033015600E+00","PERIMETER":"4.93445910647420E+00","CO35_D00_":"29","CO35_D00_I":"28","STATE":"35","COUNTY":"051","NAME":"Sierra","LSAD":"06","LSAD_TRANS":"County","CODE":"pbvs","CODE_ACC":"bmds","CODE_ABS":"bmds","CODE_EV":"pbvs","equipmentGroupLabel":"Dominion - Dominion ImageCast Evolution +","equipmentSystemName":"Dominion ImageCast Evolution +","equipmentType":"Optical Scan","equipmentVendor":"Dominion","jurisdictionCode":"NM-051","jurisdictionName":"Sierra County","sourceGranularity":"county","standardSystem":"Hand marked paper ballots, BMDs for accessibility","accessibleSystem":"Ballot Marking Devices for all voters","absenteeSystem":"Hand-Fed Optical Scanners","pollBookSystem":"In-House Electronic Poll Book","tabulation":"Optical Scan","equipmentCodeMatched":true,"sourceDocumentId":"verified-voting-verifier-nm-2024-equipment","sourceUrl":"https://verifiedvoting.org/verifier/#mode/navigate/map/voteEquip/mapType/ppEquip/year/2024/state/35"}},{"type":"Feature","bbox":[-106.37683105469,32.000457763672,-104.84777832031,33.390808105469],"geometry":{"type":"Polygon","coordinates":[[[-105.89794921875,33.390075683594],[-105.72729492188,33.390533447266],[-105.72589111328,33.304809570312],[-105.31896972656,33.305084228516],[-105.31689453125,33.132232666016],[-105.31616210938,32.962036132812],[-105.35247802734,32.961944580078],[-105.35388183594,32.518768310547],[-104.85144042969,32.5205078125],[-104.84777832031,32.000457763672],[-106.37683105469,32.001190185547],[-106.37658691406,32.957885742188],[-106.34063720703,32.958251953125],[-106.34045410156,33.052764892578],[-106.34582519531,33.390808105469],[-105.89794921875,33.390075683594]]]},"properties":{"_isDeleted":false,"AREA":"1.64907795775081E+00","PERIMETER":"5.91852753021545E+00","CO35_D00_":"30","CO35_D00_I":"29","STATE":"35","COUNTY":"035","NAME":"Otero","LSAD":"06","LSAD_TRANS":"County","CODE":"pbvs","CODE_ACC":"bmds","CODE_ABS":"bmds","CODE_EV":"pbvs","equipmentGroupLabel":"Dominion - Dominion ImageCast Evolution +","equipmentSystemName":"Dominion ImageCast Evolution +","equipmentType":"Optical Scan","equipmentVendor":"Dominion","jurisdictionCode":"NM-035","jurisdictionName":"Otero County","sourceGranularity":"county","standardSystem":"Hand marked paper ballots, BMDs for accessibility","accessibleSystem":"Ballot Marking Devices for all voters","absenteeSystem":"Hand-Fed Optical Scanners","pollBookSystem":"In-House Electronic Poll Book","tabulation":"Optical Scan","equipmentCodeMatched":true,"sourceDocumentId":"verified-voting-verifier-nm-2024-equipment","sourceUrl":"https://verifiedvoting.org/verifier/#mode/navigate/map/voteEquip/mapType/ppEquip/year/2024/state/35"}},{"type":"Feature","bbox":[-109.04718017578,31.863693237305,-107.60827636719,33.209289550781],"geometry":{"type":"Polygon","coordinates":[[[-108.18225097656,33.201080322266],[-108.00061035156,33.201538085938],[-107.86633300781,33.201995849609],[-107.86236572266,33.198486328125],[-107.85821533203,33.200897216797],[-107.86053466797,33.187774658203],[-107.85522460938,33.191009521484],[-107.84313964844,33.184448242188],[-107.84124755859,33.173950195312],[-107.85314941406,33.1708984375],[-107.85662841797,33.161468505859],[-107.85211181641,33.139221191406],[-107.84558105469,33.130920410156],[-107.85070800781,33.1201171875],[-107.84204101562,33.095764160156],[-107.84545898438,33.084228515625],[-107.83648681641,33.080261230469],[-107.83337402344,33.073974609375],[-107.85052490234,33.0546875],[-107.85516357422,33.041137695312],[-107.8564453125,33.036529541016],[-107.84814453125,33.0263671875],[-107.84600830078,33.015747070312],[-107.84820556641,33.007263183594],[-107.85461425781,33.006896972656],[-107.85662841797,33.002563476562],[-107.841796875,32.987426757812],[-107.83825683594,32.974578857422],[-107.83081054688,32.973205566406],[-107.82977294922,32.9638671875],[-107.81439208984,32.95751953125],[-107.80383300781,32.959075927734],[-107.79174804688,32.948089599609],[-107.77600097656,32.952331542969],[-107.77032470703,32.940887451172],[-107.77569580078,32.9375],[-107.77569580078,32.930847167969],[-107.76507568359,32.915161132812],[-107.77825927734,32.896423339844],[-107.77368164062,32.855621337891],[-107.75836181641,32.846038818359],[-107.74969482422,32.831451416016],[-107.74597167969,32.823059082031],[-107.74951171875,32.806793212891],[-107.74212646484,32.790283203125],[-107.73571777344,32.783538818359],[-107.72180175781,32.778747558594],[-107.71942138672,32.772186279297],[-107.71765136719,32.755401611328],[-107.72283935547,32.736114501953],[-107.71527099609,32.721527099609],[-107.72039794922,32.714233398438],[-107.71960449219,32.697448730469],[-107.72741699219,32.692077636719],[-107.72412109375,32.667449951172],[-107.73529052734,32.629333496094],[-107.71710205078,32.622589111328],[-107.60827636719,32.605316162109],[-107.92346191406,32.604400634766],[-107.92346191406,32.517272949219],[-108.22918701172,32.516998291016],[-108.22998046875,32.079925537109],[-108.21691894531,32.079833984375],[-108.21710205078,31.864059448242],[-108.52465820312,31.863693237305],[-108.52453613281,32.079742431641],[-108.5380859375,32.079833984375],[-108.53698730469,32.516723632812],[-108.64709472656,32.516906738281],[-108.64636230469,32.603576660156],[-108.85302734375,32.603576660156],[-108.85437011719,32.777282714844],[-109.04711914062,32.777557373047],[-109.04718017578,33.208923339844],[-108.64654541016,33.209289550781],[-108.54345703125,33.207794189453],[-108.44995117188,33.200988769531],[-108.18225097656,33.201080322266]]]},"properties":{"_isDeleted":false,"AREA":"9.88624568983489E-01","PERIMETER":"5.63843518279956E+00","CO35_D00_":"31","CO35_D00_I":"30","STATE":"35","COUNTY":"017","NAME":"Grant","LSAD":"06","LSAD_TRANS":"County","CODE":"pbvs","CODE_ACC":"bmds","CODE_ABS":"bmds","CODE_EV":"pbvs","equipmentGroupLabel":"Dominion - Dominion ImageCast Evolution +","equipmentSystemName":"Dominion ImageCast Evolution +","equipmentType":"Optical Scan","equipmentVendor":"Dominion","jurisdictionCode":"NM-017","jurisdictionName":"Grant County","sourceGranularity":"county","standardSystem":"Hand marked paper ballots, BMDs for accessibility","accessibleSystem":"Ballot Marking Devices for all voters","absenteeSystem":"Batch-Fed Optical Scanners","pollBookSystem":"In-House Electronic Poll Book","tabulation":"Optical Scan","equipmentCodeMatched":true,"sourceDocumentId":"verified-voting-verifier-nm-2024-equipment","sourceUrl":"https://verifiedvoting.org/verifier/#mode/navigate/map/voteEquip/mapType/ppEquip/year/2024/state/35"}},{"type":"Feature","bbox":[-107.29949951172,31.783767700195,-106.34045410156,33.052764892578],"geometry":{"type":"Polygon","coordinates":[[[-106.34045410156,33.052764892578],[-106.34063720703,32.958251953125],[-106.37658691406,32.957885742188],[-106.37683105469,32.001190185547],[-106.61846923828,32.000457763672],[-106.62353515625,31.990951538086],[-106.63647460938,31.985702514648],[-106.63812255859,31.976837158203],[-106.63006591797,31.971206665039],[-106.61956787109,31.971572875977],[-106.62512207031,31.954498291016],[-106.61468505859,31.955978393555],[-106.61614990234,31.94841003418],[-106.62359619141,31.945449829102],[-106.6220703125,31.936599731445],[-106.62860107422,31.923583984375],[-106.62390136719,31.925338745117],[-106.61181640625,31.919982910156],[-106.63366699219,31.909744262695],[-106.64538574219,31.898666381836],[-106.64520263672,31.894882202148],[-106.62915039062,31.883712768555],[-106.63592529297,31.866271972656],[-106.61456298828,31.846527099609],[-106.60205078125,31.844390869141],[-106.60266113281,31.825012207031],[-106.58898925781,31.822708129883],[-106.57720947266,31.810440063477],[-106.56677246094,31.813293457031],[-106.54711914062,31.80729675293],[-106.52789306641,31.790496826172],[-106.52844238281,31.78385925293],[-107.29681396484,31.783767700195],[-107.29949951172,32.605529785156],[-107.29937744141,32.780029296875],[-106.8876953125,32.779296875],[-106.88787841797,32.822875976562],[-106.34045410156,33.052764892578]]]},"properties":{"_isDeleted":false,"AREA":"9.46450928999662E-01","PERIMETER":"4.53726266254277E+00","CO35_D00_":"32","CO35_D00_I":"31","STATE":"35","COUNTY":"013","NAME":"Dona Ana","LSAD":"06","LSAD_TRANS":"County","CODE":"pbvs","CODE_ACC":"bmds","CODE_ABS":"bmds","CODE_EV":"pbvs","equipmentGroupLabel":"Dominion - Dominion ImageCast Evolution +","equipmentSystemName":"Dominion ImageCast Evolution +","equipmentType":"Optical Scan","equipmentVendor":"Dominion","jurisdictionCode":"NM-013","jurisdictionName":"Dona Ana County","sourceGranularity":"county","standardSystem":"Hand marked paper ballots, BMDs for accessibility","accessibleSystem":"Ballot Marking Devices for all voters","absenteeSystem":"Batch-Fed Optical Scanners","pollBookSystem":"In-House Electronic Poll Book","tabulation":"Optical Scan","equipmentCodeMatched":true,"sourceDocumentId":"verified-voting-verifier-nm-2024-equipment","sourceUrl":"https://verifiedvoting.org/verifier/#mode/navigate/map/voteEquip/mapType/ppEquip/year/2024/state/35"}},{"type":"Feature","bbox":[-104.85144042969,32.000183105469,-103.72283935547,32.965362548828],"geometry":{"type":"Polygon","coordinates":[[[-104.029296875,32.965362548828],[-103.81457519531,32.965179443359],[-103.81390380859,32.5224609375],[-103.72290039062,32.522552490234],[-103.72283935547,32.000183105469],[-104.84777832031,32.000457763672],[-104.85144042969,32.5205078125],[-104.84204101562,32.520690917969],[-104.84118652344,32.963317871094],[-104.029296875,32.965362548828]]]},"properties":{"_isDeleted":false,"AREA":"1.04282058061353E+00","PERIMETER":"4.18367383148082E+00","CO35_D00_":"33","CO35_D00_I":"32","STATE":"35","COUNTY":"015","NAME":"Eddy","LSAD":"06","LSAD_TRANS":"County","CODE":"pbvs","CODE_ACC":"bmds","CODE_ABS":"bmds","CODE_EV":"pbvs","equipmentGroupLabel":"Dominion - Dominion ImageCast Evolution +","equipmentSystemName":"Dominion ImageCast Evolution +","equipmentType":"Optical Scan","equipmentVendor":"Dominion","jurisdictionCode":"NM-015","jurisdictionName":"Eddy County","sourceGranularity":"county","standardSystem":"Hand marked paper ballots, BMDs for accessibility","accessibleSystem":"Ballot Marking Devices for all voters","absenteeSystem":"Hand-Fed Optical Scanners","pollBookSystem":"In-House Electronic Poll Book","tabulation":"Optical Scan","equipmentCodeMatched":true,"sourceDocumentId":"verified-voting-verifier-nm-2024-equipment","sourceUrl":"https://verifiedvoting.org/verifier/#mode/navigate/map/voteEquip/mapType/ppEquip/year/2024/state/35"}},{"type":"Feature","bbox":[-109.05004882812,31.332458496094,-108.20837402344,32.777557373047],"geometry":{"type":"Polygon","coordinates":[[[-109.04711914062,32.777557373047],[-108.85437011719,32.777282714844],[-108.85302734375,32.603576660156],[-108.64636230469,32.603576660156],[-108.64709472656,32.516906738281],[-108.53698730469,32.516723632812],[-108.5380859375,32.079833984375],[-108.52453613281,32.079742431641],[-108.52465820312,31.863693237305],[-108.21710205078,31.864059448242],[-108.21728515625,31.8203125],[-108.20989990234,31.820404052734],[-108.20837402344,31.783584594727],[-108.20855712891,31.333389282227],[-109.05004882812,31.332458496094],[-109.04711914062,32.777557373047]]]},"properties":{"_isDeleted":false,"AREA":"8.50993087120004E-01","PERIMETER":"4.57088984941987E+00","CO35_D00_":"34","CO35_D00_I":"33","STATE":"35","COUNTY":"023","NAME":"Hidalgo","LSAD":"06","LSAD_TRANS":"County","CODE":"pbvs","CODE_ACC":"bmds","CODE_ABS":"bmds","CODE_EV":"pbvs","equipmentGroupLabel":"Dominion - Dominion ImageCast Evolution +","equipmentSystemName":"Dominion ImageCast Evolution +","equipmentType":"Optical Scan","equipmentVendor":"Dominion","jurisdictionCode":"NM-023","jurisdictionName":"Hidalgo County","sourceGranularity":"county","standardSystem":"Hand marked paper ballots, BMDs for accessibility","accessibleSystem":"Ballot Marking Devices for all voters","absenteeSystem":"Hand-Fed Optical Scanners","pollBookSystem":"In-House Electronic Poll Book","tabulation":"Optical Scan","equipmentCodeMatched":true,"sourceDocumentId":"verified-voting-verifier-nm-2024-equipment","sourceUrl":"https://verifiedvoting.org/verifier/#mode/navigate/map/voteEquip/mapType/ppEquip/year/2024/state/35"}},{"type":"Feature","bbox":[-108.22998046875,31.783584594727,-107.29681396484,32.605529785156],"geometry":{"type":"Polygon","coordinates":[[[-107.60827636719,32.605316162109],[-107.29949951172,32.605529785156],[-107.29681396484,31.783767700195],[-108.20837402344,31.783584594727],[-108.20989990234,31.820404052734],[-108.21728515625,31.8203125],[-108.21710205078,31.864059448242],[-108.21691894531,32.079833984375],[-108.22998046875,32.079925537109],[-108.22918701172,32.516998291016],[-107.92346191406,32.517272949219],[-107.92346191406,32.604400634766],[-107.60827636719,32.605316162109]]]},"properties":{"_isDeleted":false,"AREA":"7.34488143397837E-01","PERIMETER":"3.50559847954100E+00","CO35_D00_":"35","CO35_D00_I":"34","STATE":"35","COUNTY":"029","NAME":"Luna","LSAD":"06","LSAD_TRANS":"County","CODE":"pbvs","CODE_ACC":"bmds","CODE_ABS":"bmds","CODE_EV":"pbvs","equipmentGroupLabel":"Dominion - Dominion ImageCast Evolution +","equipmentSystemName":"Dominion ImageCast Evolution +","equipmentType":"Optical Scan","equipmentVendor":"Dominion","jurisdictionCode":"NM-029","jurisdictionName":"Luna County","sourceGranularity":"county","standardSystem":"Hand marked paper ballots, BMDs for accessibility","accessibleSystem":"Ballot Marking Devices for all voters","absenteeSystem":"Hand-Fed Optical Scanners","pollBookSystem":"Commercial Electronic Poll Book","tabulation":"Optical Scan","equipmentCodeMatched":true,"sourceDocumentId":"verified-voting-verifier-nm-2024-equipment","sourceUrl":"https://verifiedvoting.org/verifier/#mode/navigate/map/voteEquip/mapType/ppEquip/year/2024/state/35"}}],"properties":{"electionYear":2024,"source":"Verified Voting Verifier area geometry","sourceDocumentId":"verified-voting-verifier-nm-2024-equipment","sourceUrl":"https://verifiedvoting.org/verifier/#mode/navigate/map/voteEquip/mapType/ppEquip/year/2024/state/35","state":"NM"}}
