{"type":"FeatureCollection","bbox":[-71.862731933594,41.146331787109,-71.120544433594,42.018768310547],"features":[{"type":"Feature","bbox":[-71.799194335938,41.724731445312,-71.317749023438,42.018768310547],"geometry":{"type":"Polygon","coordinates":[[[-71.317749023438,41.776092529297],[-71.355285644531,41.746795654297],[-71.365295410156,41.735595703125],[-71.387878417969,41.763702392578],[-71.399963378906,41.768005371094],[-71.411987304688,41.765075683594],[-71.440979003906,41.758087158203],[-71.440063476562,41.752777099609],[-71.446350097656,41.748474121094],[-71.4443359375,41.740081787109],[-71.450500488281,41.739685058594],[-71.454467773438,41.732482910156],[-71.789672851562,41.724731445312],[-71.799194335938,42.008056640625],[-71.38134765625,42.018768310547],[-71.381652832031,41.893188476562],[-71.338684082031,41.898376464844],[-71.340759277344,41.881591796875],[-71.333984375,41.862274169922],[-71.342163085938,41.844787597656],[-71.335144042969,41.835479736328],[-71.34716796875,41.823089599609],[-71.3388671875,41.808288574219],[-71.340698242188,41.798278808594],[-71.332153320312,41.792297363281],[-71.327880859375,41.780487060547],[-71.317749023438,41.776092529297]]]},"properties":{"_isDeleted":false,"AREA":"1.22426151252998E-01","PERIMETER":"1.55997652977604E+00","CO44_D00_":"2","CO44_D00_I":"1","STATE":"44","COUNTY":"007","NAME":"Providence","LSAD":"06","LSAD_TRANS":"County","CODE":"pbvs","CODE_ACC":"bmds","CODE_ABS":"bmds","CODE_EV":"nev","equipmentGroupLabel":"ES&S - ES&S ExpressVote +","equipmentSystemName":"ES&S ExpressVote +","equipmentType":"Optical Scan","equipmentVendor":"ES&S","jurisdictionCode":"RI-007","jurisdictionName":"Providence County","sourceGranularity":"county","standardSystem":"Hand marked paper ballots, BMDs for accessibility","accessibleSystem":"Ballot Marking Devices for all voters","absenteeSystem":"Batch-Fed Optical Scanners","pollBookSystem":"Commercial Electronic Poll Book","tabulation":"Optical Scan","equipmentCodeMatched":true,"sourceDocumentId":"verified-voting-verifier-ri-2024-equipment","sourceUrl":"https://verifiedvoting.org/verifier/#mode/navigate/map/voteEquip/mapType/ppEquip/year/2024/state/44"}},{"type":"Feature","bbox":[-71.365295410156,41.642578125,-71.224792480469,41.776092529297],"geometry":{"type":"Polygon","coordinates":[[[-71.355285644531,41.746795654297],[-71.317749023438,41.776092529297],[-71.261352539062,41.752288818359],[-71.224792480469,41.710479736328],[-71.240966796875,41.697723388672],[-71.237609863281,41.681610107422],[-71.241516113281,41.667175292969],[-71.259521484375,41.642578125],[-71.267028808594,41.644927978516],[-71.280334472656,41.672576904297],[-71.28759765625,41.672454833984],[-71.29052734375,41.662384033203],[-71.301391601562,41.649963378906],[-71.306091308594,41.672576904297],[-71.302612304688,41.681732177734],[-71.293090820312,41.688323974609],[-71.291198730469,41.70263671875],[-71.305725097656,41.718658447266],[-71.3427734375,41.728485107422],[-71.353210449219,41.72509765625],[-71.365295410156,41.735595703125],[-71.355285644531,41.746795654297]]]},"properties":{"_isDeleted":false,"AREA":"8.30403024861770E-03","PERIMETER":"4.87134020644684E-01","CO44_D00_":"3","CO44_D00_I":"2","STATE":"44","COUNTY":"001","NAME":"Bristol","LSAD":"06","LSAD_TRANS":"County","CODE":"pbvs","CODE_ACC":"bmds","CODE_ABS":"bmds","CODE_EV":"nev","equipmentGroupLabel":"ES&S - ES&S ExpressVote +","equipmentSystemName":"ES&S ExpressVote +","equipmentType":"Optical Scan","equipmentVendor":"ES&S","jurisdictionCode":"RI-001","jurisdictionName":"Bristol County","sourceGranularity":"county","standardSystem":"Hand marked paper ballots, BMDs for accessibility","accessibleSystem":"Ballot Marking Devices for all voters","absenteeSystem":"Batch-Fed Optical Scanners","pollBookSystem":"Commercial Electronic Poll Book","tabulation":"Optical Scan","equipmentCodeMatched":true,"sourceDocumentId":"verified-voting-verifier-ri-2024-equipment","sourceUrl":"https://verifiedvoting.org/verifier/#mode/navigate/map/voteEquip/mapType/ppEquip/year/2024/state/44"}},{"type":"Feature","bbox":[-71.789672851562,41.596893310547,-71.353210449219,41.768005371094],"geometry":{"type":"Polygon","coordinates":[[[-71.411987304688,41.765075683594],[-71.399963378906,41.768005371094],[-71.387878417969,41.763702392578],[-71.365295410156,41.735595703125],[-71.353210449219,41.72509765625],[-71.365661621094,41.711608886719],[-71.365661621094,41.694915771484],[-71.377868652344,41.666625976562],[-71.389831542969,41.671875],[-71.390502929688,41.68408203125],[-71.441284179688,41.686431884766],[-71.445922851562,41.691131591797],[-71.449279785156,41.687377929688],[-71.444458007812,41.664398193359],[-71.425415039062,41.670776367188],[-71.409301757812,41.662628173828],[-71.408630371094,41.654174804688],[-71.435852050781,41.648895263672],[-71.45166015625,41.62939453125],[-71.461791992188,41.63818359375],[-71.482177734375,41.623291015625],[-71.487670898438,41.616485595703],[-71.484191894531,41.602600097656],[-71.789306640625,41.596893310547],[-71.789672851562,41.724731445312],[-71.454467773438,41.732482910156],[-71.450500488281,41.739685058594],[-71.4443359375,41.740081787109],[-71.446350097656,41.748474121094],[-71.440063476562,41.752777099609],[-71.440979003906,41.758087158203],[-71.411987304688,41.765075683594]]]},"properties":{"_isDeleted":false,"AREA":"4.96814137864359E-02","PERIMETER":"1.27704215805364E+00","CO44_D00_":"4","CO44_D00_I":"3","STATE":"44","COUNTY":"003","NAME":"Kent","LSAD":"06","LSAD_TRANS":"County","CODE":"pbvs","CODE_ACC":"bmds","CODE_ABS":"bmds","CODE_EV":"nev","equipmentGroupLabel":"ES&S - ES&S ExpressVote +","equipmentSystemName":"ES&S ExpressVote +","equipmentType":"Optical Scan","equipmentVendor":"ES&S","jurisdictionCode":"RI-003","jurisdictionName":"Kent County","sourceGranularity":"county","standardSystem":"Hand marked paper ballots, BMDs for accessibility","accessibleSystem":"Ballot Marking Devices for all voters","absenteeSystem":"Batch-Fed Optical Scanners","pollBookSystem":"Commercial Electronic Poll Book","tabulation":"Optical Scan","equipmentCodeMatched":true,"sourceDocumentId":"verified-voting-verifier-ri-2024-equipment","sourceUrl":"https://verifiedvoting.org/verifier/#mode/navigate/map/voteEquip/mapType/ppEquip/year/2024/state/44"}},{"type":"Feature","bbox":[-71.362731933594,41.448883056641,-71.120544433594,41.675079345703],"geometry":{"type":"Polygon","coordinates":[[[-71.195617675781,41.675079345703],[-71.132873535156,41.660095214844],[-71.140869140625,41.607391357422],[-71.131286621094,41.59228515625],[-71.120544433594,41.497436523438],[-71.136840820312,41.493927001953],[-71.140197753906,41.48583984375],[-71.167297363281,41.471374511719],[-71.170104980469,41.463958740234],[-71.192993164062,41.457916259766],[-71.196838378906,41.461090087891],[-71.190124511719,41.484283447266],[-71.206359863281,41.499206542969],[-71.200744628906,41.514343261719],[-71.213500976562,41.545806884766],[-71.207763671875,41.600646972656],[-71.212646484375,41.610046386719],[-71.211975097656,41.622985839844],[-71.216125488281,41.62548828125],[-71.240661621094,41.619201660156],[-71.243591308594,41.587493896484],[-71.236083984375,41.574737548828],[-71.236633300781,41.535827636719],[-71.227966308594,41.528289794922],[-71.240600585938,41.500549316406],[-71.236694335938,41.483367919922],[-71.240661621094,41.474853515625],[-71.246643066406,41.471954345703],[-71.245971679688,41.481292724609],[-71.252685546875,41.485900878906],[-71.285583496094,41.48779296875],[-71.295104980469,41.484344482422],[-71.304382324219,41.454467773438],[-71.311340332031,41.450775146484],[-71.312683105469,41.45458984375],[-71.321350097656,41.455596923828],[-71.337646484375,41.448883056641],[-71.35107421875,41.450775146484],[-71.362731933594,41.460357666016],[-71.361511230469,41.464813232422],[-71.316467285156,41.4775390625],[-71.323120117188,41.503082275391],[-71.330688476562,41.507690429688],[-71.330810546875,41.518341064453],[-71.313049316406,41.53466796875],[-71.303649902344,41.559906005859],[-71.285095214844,41.577117919922],[-71.2734375,41.606964111328],[-71.275207519531,41.619415283203],[-71.251037597656,41.638763427734],[-71.212097167969,41.641937255859],[-71.195617675781,41.675079345703]]]},"properties":{"_isDeleted":false,"AREA":"2.59330693205360E-02","PERIMETER":"1.18907364077964E+00","CO44_D00_":"5","CO44_D00_I":"4","STATE":"44","COUNTY":"005","NAME":"Newport","LSAD":"06","LSAD_TRANS":"County","CODE":"pbvs","CODE_ACC":"bmds","CODE_ABS":"bmds","CODE_EV":"nev","equipmentGroupLabel":"ES&S - ES&S ExpressVote +","equipmentSystemName":"ES&S ExpressVote +","equipmentType":"Optical Scan","equipmentVendor":"ES&S","jurisdictionCode":"RI-005","jurisdictionName":"Newport County","sourceGranularity":"county","standardSystem":"Hand marked paper ballots, BMDs for accessibility","accessibleSystem":"Ballot Marking Devices for all voters","absenteeSystem":"Batch-Fed Optical Scanners","pollBookSystem":"Commercial Electronic Poll Book","tabulation":"Optical Scan","equipmentCodeMatched":true,"sourceDocumentId":"verified-voting-verifier-ri-2024-equipment","sourceUrl":"https://verifiedvoting.org/verifier/#mode/navigate/map/voteEquip/mapType/ppEquip/year/2024/state/44"}},{"type":"Feature","bbox":[-71.366149902344,41.578582763672,-71.303344726562,41.662872314453],"geometry":{"type":"Polygon","coordinates":[[[-71.353759765625,41.662872314453],[-71.338684082031,41.658782958984],[-71.336181640625,41.64794921875],[-71.343627929688,41.639892578125],[-71.314880371094,41.630401611328],[-71.305541992188,41.622497558594],[-71.303344726562,41.606567382812],[-71.317443847656,41.583160400391],[-71.326049804688,41.578582763672],[-71.3359375,41.585876464844],[-71.337036132812,41.594665527344],[-71.325866699219,41.623962402344],[-71.346557617188,41.632202148438],[-71.362854003906,41.651458740234],[-71.366149902344,41.660980224609],[-71.353759765625,41.662872314453]]]},"properties":{"_isDeleted":false,"AREA":"1.80571094839754E-03","PERIMETER":"2.60976360763092E-01","CO44_D00_":"6","CO44_D00_I":"5","STATE":"44","COUNTY":"005","NAME":"Newport","LSAD":"06","LSAD_TRANS":"County","CODE":"pbvs","CODE_ACC":"bmds","CODE_ABS":"bmds","CODE_EV":"nev","equipmentGroupLabel":"ES&S - ES&S ExpressVote +","equipmentSystemName":"ES&S ExpressVote +","equipmentType":"Optical Scan","equipmentVendor":"ES&S","jurisdictionCode":"RI-005","jurisdictionName":"Newport County","sourceGranularity":"county","standardSystem":"Hand marked paper ballots, BMDs for accessibility","accessibleSystem":"Ballot Marking Devices for all voters","absenteeSystem":"Batch-Fed Optical Scanners","pollBookSystem":"Commercial Electronic Poll Book","tabulation":"Optical Scan","equipmentCodeMatched":true,"sourceDocumentId":"verified-voting-verifier-ri-2024-equipment","sourceUrl":"https://verifiedvoting.org/verifier/#mode/navigate/map/voteEquip/mapType/ppEquip/year/2024/state/44"}},{"type":"Feature","bbox":[-71.862731933594,41.306304931641,-71.403747558594,41.654174804688],"geometry":{"type":"Polygon","coordinates":[[[-71.435852050781,41.648895263672],[-71.408630371094,41.654174804688],[-71.403747558594,41.589294433594],[-71.447692871094,41.580383300781],[-71.442565917969,41.565063476562],[-71.417358398438,41.534515380859],[-71.414916992188,41.516296386719],[-71.42138671875,41.498626708984],[-71.418395996094,41.472625732422],[-71.430725097656,41.470611572266],[-71.427917480469,41.459503173828],[-71.43359375,41.444976806641],[-71.455810546875,41.432952880859],[-71.455322265625,41.407958984375],[-71.483276367188,41.371704101562],[-71.526672363281,41.376617431641],[-71.555358886719,41.373291015625],[-71.624450683594,41.36083984375],[-71.720703125,41.33154296875],[-71.785949707031,41.325714111328],[-71.833740234375,41.315612792969],[-71.857421875,41.306304931641],[-71.862731933594,41.309783935547],[-71.859558105469,41.322387695312],[-71.831176757812,41.344635009766],[-71.833435058594,41.384521484375],[-71.842102050781,41.395355224609],[-71.842529296875,41.409851074219],[-71.818359375,41.419586181641],[-71.797668457031,41.416687011719],[-71.789306640625,41.596893310547],[-71.484191894531,41.602600097656],[-71.487670898438,41.616485595703],[-71.482177734375,41.623291015625],[-71.461791992188,41.63818359375],[-71.45166015625,41.62939453125],[-71.435852050781,41.648895263672]]]},"properties":{"_isDeleted":false,"AREA":"9.50078739325724E-02","PERIMETER":"1.53408179656976E+00","CO44_D00_":"7","CO44_D00_I":"6","STATE":"44","COUNTY":"009","NAME":"Washington","LSAD":"06","LSAD_TRANS":"County","CODE":"pbvs","CODE_ACC":"bmds","CODE_ABS":"bmds","CODE_EV":"nev","equipmentGroupLabel":"ES&S - ES&S ExpressVote +","equipmentSystemName":"ES&S ExpressVote +","equipmentType":"Optical Scan","equipmentVendor":"ES&S","jurisdictionCode":"RI-009","jurisdictionName":"Washington County","sourceGranularity":"county","standardSystem":"Hand marked paper ballots, BMDs for accessibility","accessibleSystem":"Ballot Marking Devices for all voters","absenteeSystem":"Batch-Fed Optical Scanners","pollBookSystem":"Commercial Electronic Poll Book","tabulation":"Optical Scan","equipmentCodeMatched":true,"sourceDocumentId":"verified-voting-verifier-ri-2024-equipment","sourceUrl":"https://verifiedvoting.org/verifier/#mode/navigate/map/voteEquip/mapType/ppEquip/year/2024/state/44"}},{"type":"Feature","bbox":[-71.286743164062,41.637786865234,-71.274291992188,41.648193359375],"geometry":{"type":"Polygon","coordinates":[[[-71.281555175781,41.648193359375],[-71.274291992188,41.638122558594],[-71.283752441406,41.637786865234],[-71.286743164062,41.642700195312],[-71.281555175781,41.648193359375]]]},"properties":{"_isDeleted":false,"AREA":"7.78878774503333E-05","PERIMETER":"3.68677266264010E-02","CO44_D00_":"8","CO44_D00_I":"7","STATE":"44","COUNTY":"005","NAME":"Newport","LSAD":"06","LSAD_TRANS":"County","CODE":"pbvs","CODE_ACC":"bmds","CODE_ABS":"bmds","CODE_EV":"nev","equipmentGroupLabel":"ES&S - ES&S ExpressVote +","equipmentSystemName":"ES&S ExpressVote +","equipmentType":"Optical Scan","equipmentVendor":"ES&S","jurisdictionCode":"RI-005","jurisdictionName":"Newport County","sourceGranularity":"county","standardSystem":"Hand marked paper ballots, BMDs for accessibility","accessibleSystem":"Ballot Marking Devices for all voters","absenteeSystem":"Batch-Fed Optical Scanners","pollBookSystem":"Commercial Electronic Poll Book","tabulation":"Optical Scan","equipmentCodeMatched":true,"sourceDocumentId":"verified-voting-verifier-ri-2024-equipment","sourceUrl":"https://verifiedvoting.org/verifier/#mode/navigate/map/voteEquip/mapType/ppEquip/year/2024/state/44"}},{"type":"Feature","bbox":[-71.399536132812,41.448577880859,-71.35986328125,41.573577880859],"geometry":{"type":"Polygon","coordinates":[[[-71.371887207031,41.573577880859],[-71.363525390625,41.570831298828],[-71.35986328125,41.556274414062],[-71.36328125,41.501953125],[-71.3603515625,41.483093261719],[-71.380920410156,41.474548339844],[-71.390258789062,41.455017089844],[-71.399536132812,41.448577880859],[-71.395874023438,41.4921875],[-71.386474609375,41.493072509766],[-71.37890625,41.504943847656],[-71.390991210938,41.514556884766],[-71.39208984375,41.524444580078],[-71.384460449219,41.556732177734],[-71.371887207031,41.573577880859]]]},"properties":{"_isDeleted":false,"AREA":"2.81358168131815E-03","PERIMETER":"3.01875626254377E-01","CO44_D00_":"9","CO44_D00_I":"8","STATE":"44","COUNTY":"005","NAME":"Newport","LSAD":"06","LSAD_TRANS":"County","CODE":"pbvs","CODE_ACC":"bmds","CODE_ABS":"bmds","CODE_EV":"nev","equipmentGroupLabel":"ES&S - ES&S ExpressVote +","equipmentSystemName":"ES&S ExpressVote +","equipmentType":"Optical Scan","equipmentVendor":"ES&S","jurisdictionCode":"RI-005","jurisdictionName":"Newport County","sourceGranularity":"county","standardSystem":"Hand marked paper ballots, BMDs for accessibility","accessibleSystem":"Ballot Marking Devices for all voters","absenteeSystem":"Batch-Fed Optical Scanners","pollBookSystem":"Commercial Electronic Poll Book","tabulation":"Optical Scan","equipmentCodeMatched":true,"sourceDocumentId":"verified-voting-verifier-ri-2024-equipment","sourceUrl":"https://verifiedvoting.org/verifier/#mode/navigate/map/voteEquip/mapType/ppEquip/year/2024/state/44"}},{"type":"Feature","bbox":[-71.342956542969,41.482971191406,-71.326721191406,41.498596191406],"geometry":{"type":"Polygon","coordinates":[[[-71.326721191406,41.491271972656],[-71.327819824219,41.482971191406],[-71.342956542969,41.49560546875],[-71.341125488281,41.498596191406],[-71.326721191406,41.491271972656]]]},"properties":{"_isDeleted":false,"AREA":"1.05787854717154E-04","PERIMETER":"4.85682569813496E-02","CO44_D00_":"10","CO44_D00_I":"9","STATE":"44","COUNTY":"005","NAME":"Newport","LSAD":"06","LSAD_TRANS":"County","CODE":"pbvs","CODE_ACC":"bmds","CODE_ABS":"bmds","CODE_EV":"nev","equipmentGroupLabel":"ES&S - ES&S ExpressVote +","equipmentSystemName":"ES&S ExpressVote +","equipmentType":"Optical Scan","equipmentVendor":"ES&S","jurisdictionCode":"RI-005","jurisdictionName":"Newport County","sourceGranularity":"county","standardSystem":"Hand marked paper ballots, BMDs for accessibility","accessibleSystem":"Ballot Marking Devices for all voters","absenteeSystem":"Batch-Fed Optical Scanners","pollBookSystem":"Commercial Electronic Poll Book","tabulation":"Optical Scan","equipmentCodeMatched":true,"sourceDocumentId":"verified-voting-verifier-ri-2024-equipment","sourceUrl":"https://verifiedvoting.org/verifier/#mode/navigate/map/voteEquip/mapType/ppEquip/year/2024/state/44"}},{"type":"Feature","bbox":[-71.613098144531,41.146331787109,-71.54443359375,41.228424072266],"geometry":{"type":"Polygon","coordinates":[[[-71.557312011719,41.173004150391],[-71.54443359375,41.164886474609],[-71.546997070312,41.153686523438],[-71.593688964844,41.146331787109],[-71.611694335938,41.153228759766],[-71.613098144531,41.160247802734],[-71.605529785156,41.18212890625],[-71.580200195312,41.204833984375],[-71.57373046875,41.228424072266],[-71.561096191406,41.224182128906],[-71.554992675781,41.216796875],[-71.565734863281,41.184356689453],[-71.557312011719,41.173004150391]]]},"properties":{"_isDeleted":false,"AREA":"3.02695600750058E-03","PERIMETER":"2.57041396968001E-01","CO44_D00_":"11","CO44_D00_I":"10","STATE":"44","COUNTY":"009","NAME":"Washington","LSAD":"06","LSAD_TRANS":"County","CODE":"pbvs","CODE_ACC":"bmds","CODE_ABS":"bmds","CODE_EV":"nev","equipmentGroupLabel":"ES&S - ES&S ExpressVote +","equipmentSystemName":"ES&S ExpressVote +","equipmentType":"Optical Scan","equipmentVendor":"ES&S","jurisdictionCode":"RI-009","jurisdictionName":"Washington County","sourceGranularity":"county","standardSystem":"Hand marked paper ballots, BMDs for accessibility","accessibleSystem":"Ballot Marking Devices for all voters","absenteeSystem":"Batch-Fed Optical Scanners","pollBookSystem":"Commercial Electronic Poll Book","tabulation":"Optical Scan","equipmentCodeMatched":true,"sourceDocumentId":"verified-voting-verifier-ri-2024-equipment","sourceUrl":"https://verifiedvoting.org/verifier/#mode/navigate/map/voteEquip/mapType/ppEquip/year/2024/state/44"}}],"properties":{"electionYear":2024,"source":"Verified Voting Verifier area geometry","sourceDocumentId":"verified-voting-verifier-ri-2024-equipment","sourceUrl":"https://verifiedvoting.org/verifier/#mode/navigate/map/voteEquip/mapType/ppEquip/year/2024/state/44","state":"RI"}}
